{"type":"FeatureCollection","features":[
{"type":"Feature","geometry":{"type":"Point","coordinates":[9.1982557,48.4997665]},"properties":{"button_operated":"yes","crossing":"traffic_signals","crossing:markings":"yes","highway":"crossing","tactile_paving":"yes","traffic_signals:sound":"yes","traffic_signals:vibration":"yes"}},
{"type":"Feature","geometry":{"type":"Point","coordinates":[9.2053936,48.4951681]},"properties":{"button_operated":"yes","crossing":"traffic_signals","crossing:island":"yes","highway":"crossing","kerb":"lowered","tactile_paving":"no","traffic_signals:sound":"yes","traffic_signals:vibration":"no"}},
{"type":"Feature","geometry":{"type":"Point","coordinates":[9.2053497,48.4951655]},"properties":{"highway":"traffic_signals","traffic_signals:direction":"backward"}},
{"type":"Feature","geometry":{"type":"Point","coordinates":[9.1974093,48.4984429]},"properties":{"button_operated":"yes","crossing":"traffic_signals","highway":"crossing","kerb":"lowered","tactile_paving":"no","traffic_signals:sound":"yes","traffic_signals:vibration":"yes"}},
{"type":"Feature","geometry":{"type":"Point","coordinates":[9.1973264,48.4981545]},"properties":{"button_operated":"yes","check_date":"2020-09-16","crossing":"traffic_signals","highway":"traffic_signals","survey:date":"2020-09-21","tactile_paving":"no","traffic_signals:sound":"no","traffic_signals:vibration":"yes"}},
{"type":"Feature","geometry":{"type":"LineString","coordinates":[[9.2007609,48.4922094],[9.1953627,48.4915417],[9.1945093,48.4914763],[9.1937265,48.4914424],[9.1934748,48.4913636],[9.1935502,48.4912359],[9.1939139,48.4911589],[9.194677,48.4911628],[9.1954805,48.4911326],[9.1959499,48.4911074],[9.1965478,48.4910364],[9.1965668,48.4913552],[9.1984233,48.4913377],[9.198623,48.4915717],[9.2000096,48.4913925],[9.2000627,48.4912921],[9.2007386,48.491397],[9.2007708,48.4916743],[9.2007609,48.4922094]]},"properties":{"landuse":"commercial"}},
{"type":"Feature","geometry":{"type":"LineString","coordinates":[[9.2020148,48.5011488],[9.2020941,48.5010564],[9.201933,48.5009616],[9.2018662,48.50035],[9.1999762,48.499367],[9.1997821,48.4992677],[9.1998274,48.4992299],[9.1999944,48.4990822],[9.200074,48.4989581],[9.2001533,48.4987766],[9.2001453,48.4986819],[9.2002382,48.4986602],[9.2002079,48.4986033],[9.2002812,48.4985862],[9.2002268,48.498484],[9.200459,48.4984297],[9.200689,48.4982699],[9.2013951,48.4977255],[9.2014003,48.4976636],[9.2014355,48.4975756],[9.2011782,48.4975172],[9.2009672,48.4974344],[9.2007619,48.4973784],[9.2004587,48.4973055],[9.200244,48.4973224],[9.2000173,48.4972975],[9.1997101,48.4972006],[9.1994726,48.4970966],[9.1991184,48.4970503],[9.1988125,48.4970619],[9.1984283,48.4970878],[9.1982274,48.4971052],[9.1980432,48.4971312],[9.1979269,48.4971603],[9.1978253,48.4971987],[9.1977102,48.4972448],[9.1976108,48.4972932],[9.1974725,48.4973682],[9.19736,48.4974348],[9.197248,48.4974884],[9.1971925,48.4975052],[9.1971298,48.4975215],[9.1971512,48.4975753],[9.1971854,48.4976635],[9.1972781,48.4979863],[9.1973264,48.4981545],[9.1973505,48.4982384],[9.1973781,48.4983343],[9.1974093,48.4984429],[9.197443700000001,48.4985628],[9.1974906,48.4987348],[9.1975399,48.4989028],[9.1975699,48.498988],[9.1976006,48.4990652],[9.1976457,48.4991523],[9.1976849,48.4992219],[9.1977281,48.4992861],[9.1977857,48.4993649],[9.1978697,48.4994783],[9.1979656,48.4995656],[9.1980684,48.499653],[9.1982557,48.4997665],[9.1983901,48.4998256],[9.1984249,48.49984],[9.1985345,48.4998826],[9.1987408,48.4999619],[9.1988564,48.5000011],[9.1990631,48.5000684],[9.1993267,48.5001242],[9.1997461,48.5002106],[9.2000315,48.5003373],[9.2004373,48.5005182],[9.2007741,48.5006642],[9.2011574,48.5008363],[9.2015363,48.5010003],[9.2020148,48.5011488]]},"properties":{"landuse":"commercial"}},
{"type":"Feature","geometry":{"type":"LineString","coordinates":[[9.2054611,48.4951669],[9.2054198,48.4949612],[9.2057625,48.4939672],[9.2040804,48.4935852],[9.2039914,48.4937507],[9.2036795,48.4943128],[9.2038901,48.494468],[9.2038798,48.4949536],[9.2039975,48.4949509],[9.2041841,48.4949572],[9.2043796,48.4949756],[9.2044994,48.4949896],[9.2046477,48.4950134],[9.2047373,48.495032],[9.2048706,48.495062],[9.204995,48.4950929],[9.2051063,48.4951199],[9.2051823,48.4951371],[9.2052591,48.4951524],[9.2053239,48.4951625],[9.2053497,48.4951655],[9.2053936,48.4951681],[9.2054611,48.4951669]]},"properties":{"landuse":"commercial"}},
{"type":"Feature","geometry":{"type":"LineString","coordinates":[[9.2054383,48.5035288],[9.2058326,48.5034826],[9.2059269,48.5035429],[9.2060055,48.5041636],[9.2060084,48.5046488],[9.2051833,48.5046727],[9.2044564,48.504462],[9.2049829,48.5038671],[9.2052317,48.5036443],[9.2054383,48.5035288]]},"properties":{"landuse":"commercial"}},
{"type":"Feature","geometry":{"type":"LineString","coordinates":[[9.2100157,48.4995236],[9.2102137,48.4995439],[9.2102848,48.4995584],[9.2103275,48.4995881],[9.2103676,48.4996316],[9.2102715,48.4998491],[9.2101995,48.4998356],[9.209964,48.4997914],[9.2099096,48.4999562],[9.209845,48.4999471],[9.2098126,48.5000057],[9.2090843,48.4997958],[9.2094195,48.4994369],[9.2097029,48.4994854],[9.2095825,48.4996406],[9.2099312,48.4997424],[9.2100157,48.4995236]]},"properties":{"landuse":"commercial","name":"Mohring"}},
{"type":"Feature","geometry":{"type":"MultiPolygon","coordinates":[[[[9.1934748,48.4913636],[9.1935502,48.4912359],[9.1939139,48.4911589],[9.194677,48.4911628],[9.1954805,48.4911326],[9.1959499,48.4911074],[9.1965478,48.4910364],[9.1965668,48.4913552],[9.1984233,48.4913377],[9.198623,48.4915717],[9.2000096,48.4913925],[9.2000627,48.4912921],[9.2007386,48.491397],[9.2007708,48.4916743],[9.2007609,48.4922094],[9.1953627,48.4915417],[9.1945093,48.4914763],[9.1937265,48.4914424],[9.1934748,48.4913636]]]]},"properties":{"landuse":"commercial"}},
{"type":"Feature","geometry":{"type":"MultiPolygon","coordinates":[[[[9.1971298,48.4975215],[9.1971925,48.4975052],[9.197248,48.4974884],[9.19736,48.4974348],[9.1974725,48.4973682],[9.1976108,48.4972932],[9.1977102,48.4972448],[9.1978253,48.4971987],[9.1979269,48.4971603],[9.1980432,48.4971312],[9.1982274,48.4971052],[9.1984283,48.4970878],[9.1988125,48.4970619],[9.1991184,48.4970503],[9.1994726,48.4970966],[9.1997101,48.4972006],[9.2000173,48.4972975],[9.200244,48.4973224],[9.2004587,48.4973055],[9.2007619,48.4973784],[9.2009672,48.4974344],[9.2011782,48.4975172],[9.2014355,48.4975756],[9.2014003,48.4976636],[9.2013951,48.4977255],[9.200689,48.4982699],[9.200459,48.4984297],[9.2002268,48.498484],[9.2002812,48.4985862],[9.2002079,48.4986033],[9.2002382,48.4986602],[9.2001453,48.4986819],[9.2001533,48.4987766],[9.200074,48.4989581],[9.1999944,48.4990822],[9.1998274,48.4992299],[9.1997821,48.4992677],[9.1999762,48.499367],[9.2018662,48.50035],[9.201933,48.5009616],[9.2020941,48.5010564],[9.2020148,48.5011488],[9.2015363,48.5010003],[9.2011574,48.5008363],[9.2007741,48.5006642],[9.2004373,48.5005182],[9.2000315,48.5003373],[9.1997461,48.5002106],[9.1993267,48.5001242],[9.1990631,48.5000684],[9.1988564,48.5000011],[9.1987408,48.4999619],[9.1985345,48.4998826],[9.1984249,48.49984],[9.1983901,48.4998256],[9.1982557,48.4997665],[9.1980684,48.499653],[9.1979656,48.4995656],[9.1978697,48.4994783],[9.1977857,48.4993649],[9.1977281,48.4992861],[9.1976849,48.4992219],[9.1976457,48.4991523],[9.1976006,48.4990652],[9.1975699,48.498988],[9.1975399,48.4989028],[9.1974906,48.4987348],[9.197443700000001,48.4985628],[9.1974093,48.4984429],[9.1973781,48.4983343],[9.1973505,48.4982384],[9.1973264,48.4981545],[9.1972781,48.4979863],[9.1971854,48.4976635],[9.1971512,48.4975753],[9.1971298,48.4975215]]]]},"properties":{"landuse":"commercial"}},
{"type":"Feature","geometry":{"type":"MultiPolygon","coordinates":[[[[9.2036795,48.4943128],[9.2039914,48.4937507],[9.2040804,48.4935852],[9.2057625,48.4939672],[9.2054198,48.4949612],[9.2054611,48.4951669],[9.2053936,48.4951681],[9.2053497,48.4951655],[9.2053239,48.4951625],[9.2052591,48.4951524],[9.2051823,48.4951371],[9.2051063,48.4951199],[9.204995,48.4950929],[9.2048706,48.495062],[9.2047373,48.495032],[9.2046477,48.4950134],[9.2044994,48.4949896],[9.2043796,48.4949756],[9.2041841,48.4949572],[9.2039975,48.4949509],[9.2038798,48.4949536],[9.2038901,48.494468],[9.2036795,48.4943128]]]]},"properties":{"landuse":"commercial"}},
{"type":"Feature","geometry":{"type":"MultiPolygon","coordinates":[[[[9.2044564,48.504462],[9.2049829,48.5038671],[9.2052317,48.5036443],[9.2054383,48.5035288],[9.2058326,48.5034826],[9.2059269,48.5035429],[9.2060055,48.5041636],[9.2060084,48.5046488],[9.2051833,48.5046727],[9.2044564,48.504462]]]]},"properties":{"landuse":"commercial"}},
{"type":"Feature","geometry":{"type":"MultiPolygon","coordinates":[[[[9.2090843,48.4997958],[9.2094195,48.4994369],[9.2097029,48.4994854],[9.2095825,48.4996406],[9.2099312,48.4997424],[9.2100157,48.4995236],[9.2102137,48.4995439],[9.2102848,48.4995584],[9.2103275,48.4995881],[9.2103676,48.4996316],[9.2102715,48.4998491],[9.2101995,48.4998356],[9.209964,48.4997914],[9.2099096,48.4999562],[9.209845,48.4999471],[9.2098126,48.5000057],[9.2090843,48.4997958]]]]},"properties":{"landuse":"commercial","name":"Mohring"}}
]}
