{"type":"FeatureCollection","features":[
{"type":"Feature","geometry":{"type":"Point","coordinates":[9.2153242,48.4940195]},"properties":{"addr:city":"Reutlingen","addr:country":"DE","addr:housenumber":"47","addr:postcode":"72764","addr:street":"Kaiserstraße","amenity":"pharmacy","check_date":"2025-03-13","contact:fax":"+49 7121 17750","contact:phone":"+49 7121 490640","contact:website":"https://www.list-apotheke.de","dispensing":"yes","healthcare":"pharmacy","level":"0","name":"List-Apotheke","opening_hours":"Mo-Fr 08:00-18:30; Sa 08:30-12:30","operator":"Dr. Stephan Weinandy"}},
{"type":"Feature","geometry":{"type":"Point","coordinates":[9.2116129,48.4963277]},"properties":{"addr:city":"Reutlingen","addr:country":"DE","addr:housenumber":"11","addr:postcode":"72764","addr:street":"Kaiserstraße","amenity":"pharmacy","check_date":"2025-03-13","check_date:opening_hours":"2023-02-01","contact:fax":"+49 7121 492472","contact:phone":"+49 7121 490011","contact:website":"https://www.bahnhof-apotheke-reutlingen.de","dispensing":"yes","healthcare":"pharmacy","name":"Bahnhof-Apotheke","opening_hours":"Mo-Fr 08:00-18:30, Sa 09:00-13:00","operator":"Christos Paralis","wheelchair":"yes"}},
{"type":"Feature","geometry":{"type":"Point","coordinates":[9.2151383,48.4880415]},"properties":{"addr:city":"Reutlingen","addr:country":"DE","addr:housenumber":"5","addr:postcode":"72764","addr:street":"Lindachstraße","amenity":"pharmacy","check_date":"2025-03-20","contact:email":"info@lindach-apotheke.de","contact:fax":"+49 7121 210035","contact:phone":"+49 7121 270868","contact:website":"https://www.lindach-apotheke.de","dispensing":"yes","healthcare":"pharmacy","name":"Lindach-Apotheke","opening_hours":"Mo-Fr 08:30-13:00,14:00-18:30; Sa 09:00-13:00","operator":"Britta Thumm","wheelchair":"yes"}},
{"type":"Feature","geometry":{"type":"Point","coordinates":[9.2088773,48.4913979]},"properties":{"addr:city":"Reutlingen","addr:country":"DE","addr:housenumber":"28","addr:postcode":"72764","addr:street":"Katharinenstraße","amenity":"pharmacy","contact:email":"service@apo-tue-tor.de","contact:fax":"+49 7121 346801","contact:phone":"+49 7121 339951","contact:website":"http://www.apo-tue-tor.de","dispensing":"yes","healthcare":"pharmacy","name":"Apotheke am Tübinger Tor","opening_hours":"Su off; PH off; Mo-Fr 08:00-18:30; Sa 08:30-14:00","operator":"Dr. Myriam Polychronidis","wheelchair":"yes"}},
{"type":"Feature","geometry":{"type":"Point","coordinates":[9.2155967,48.4932362]},"properties":{"addr:city":"Reutlingen","addr:country":"DE","addr:housenumber":"8","addr:postcode":"72764","addr:street":"Kaiserpassage","amenity":"pharmacy","check_date":"2024-03-11","contact:email":"apokaiserpassage@gmx.de","contact:fax":"+49 7121 340187","contact:phone":"+49 7121 310303","contact:website":"http://www.apo-inderkaiserpassage-reutlingen.de","dispensing":"yes","healthcare":"pharmacy","name":"Apotheke in der Kaiserpassage","opening_hours":"Mo-Fr 08:00-13:00,14:00-18:30; Sa 08:30-12:30","operator":"Dr. Anja Meißel","wheelchair":"yes"}},
{"type":"Feature","geometry":{"type":"Point","coordinates":[9.1981381,48.4979508]},"properties":{"addr:city":"Reutlingen","addr:country":"DE","addr:housenumber":"21","addr:postcode":"72760","addr:street":"Emil-Adolff-Straße","amenity":"pharmacy","check_date:opening_hours":"2024-08-31","contact:email":"info@apotheke-im-e-center.de","contact:fax":"+49 7121 372931","contact:phone":"+49 7121 372930","contact:website":"http://www.apotheke-im-e-center.de","dispensing":"yes","healthcare":"pharmacy","name":"Apotheke im E-Center","opening_hours":"Mo-Fr 08:00-22:00; Sa 08:00-22:00; Su off; PH off","operator":"Siegbert Ruchay","ref:vatin":"DE218914191","toilets:wheelchair":"yes","wheelchair":"yes"}},
{"type":"Feature","geometry":{"type":"Point","coordinates":[9.216537,48.4900742]},"properties":{"addr:city":"Reutlingen","addr:country":"DE","addr:housenumber":"2","addr:postcode":"72764","addr:street":"Albstraße","amenity":"pharmacy","check_date:opening_hours":"2024-02-10","contact:email":"info@albtor-apotheke.de","contact:fax":"+49 7121 8201797","contact:phone":"+49 7121 8201795","contact:website":"http://www.albtor-apotheke.de","dispensing":"yes","healthcare":"pharmacy","name":"Albtor-Apotheke","opening_hours":"Mo-Fr 08:00-19:00; Sa 08:00-14:00","operator":"Niklas Lang","wheelchair":"yes"}},
{"type":"Feature","geometry":{"type":"Point","coordinates":[9.2111598,48.492911]},"properties":{"addr:city":"Reutlingen","addr:country":"DE","addr:housenumber":"53","addr:postcode":"72764","addr:street":"Wilhelmstraße","amenity":"pharmacy","check_date":"2023-04-26","contact:fax":"+49 7121 310774","contact:phone":"+49 7121 334937","contact:website":"https://www.hirsch-apotheke-reutlingen.de","dispensing":"yes","healthcare":"pharmacy","name":"Hirsch-Apotheke","opening_hours":"Mo-Fr 08:30-18:30; Sa 08:30-15:00","operator":"Dr. Stefan Merz","wheelchair":"no"}},
{"type":"Feature","geometry":{"type":"Point","coordinates":[9.216758,48.4900114]},"properties":{"addr:city":"Reutlingen","addr:housenumber":"2","addr:postcode":"72764","addr:street":"Albstraße","amenity":"doctors","check_date":"2024-03-21","healthcare":"centre","name":"Ärztehaus","wheelchair":"yes"}},
{"type":"Feature","geometry":{"type":"Point","coordinates":[9.2075284,48.4903185]},"properties":{"addr:city":"Reutlingen","addr:country":"DE","addr:housenumber":"8","addr:postcode":"72764","addr:street":"Oskar-Kalbfell-Platz","amenity":"pharmacy","check_date":"2024-04-21","contact:fax":"+49 7121 22924","contact:phone":"+49 7121 22924","contact:website":"http://www.apotheke-am-steg-reutlingen.de","dispensing":"yes","healthcare":"pharmacy","name":"Apotheke am Steg","opening_hours":"Mo-Fr 08:15-18:30; Sa 09:00-12:30","operator":"Peter Ihli","wheelchair":"yes"}},
{"type":"Feature","geometry":{"type":"Point","coordinates":[9.2097296,48.4939634]},"properties":{"addr:city":"Reutlingen","addr:country":"DE","addr:housenumber":"10","addr:postcode":"72764","addr:street":"Wilhelmstraße","amenity":"pharmacy","check_date:opening_hours":"2025-03-13","contact:fax":"+49 7121 933693","contact:phone":"+49 7121 93360","contact:website":"http://www.sonnen-apotheke-reutlingen.de","dispensing":"yes","healthcare":"pharmacy","name":"Sonnen-Apotheke","opening_hours":"Su off; PH off; Mo-Fr 08:00-18:30; Sa 09:00-13:00","operator":"Wolfgang Merz","wheelchair":"yes"}},
{"type":"Feature","geometry":{"type":"Point","coordinates":[9.2105415,48.5032994]},"properties":{"addr:city":"Reutlingen","addr:country":"DE","addr:housenumber":"40","addr:postcode":"72760","addr:street":"Föhrstraße","amenity":"pharmacy","brand":"easyApotheke","brand:wikidata":"Q110987931","check_date:opening_hours":"2022-11-08","contact:email":"reutlingen@easyapotheken.de","contact:fax":"+49 7121 62879-29","contact:phone":"+49 7121 62879-0","contact:website":"https://reutlingen.easyapotheken.de","dispensing":"yes","healthcare":"pharmacy","name":"easyApotheke","opening_hours":"Mo-Fr 08:30-19:00; Sa 08:30-18:00","operator":"Wolfram Schanz","website":"https://reutlingen.easyapotheken.de","wheelchair":"limited"}},
{"type":"Feature","geometry":{"type":"Point","coordinates":[9.2167324,48.4891044]},"properties":{"addr:city":"Reutlingen","addr:country":"DE","addr:housenumber":"3-7","addr:postcode":"72764","addr:street":"Obere Wässere","amenity":"doctors","contact:email":"info@praxis-schmitz-salue.de","contact:fax":"+49 7121 3018740","contact:phone":"+49 7121 3018741","contact:website":"http://www.praxis-schmitz-salue.de","healthcare":"doctor","healthcare:speciality":"otolaryngology","level":"4","name":"Praxis Dr. med Christine Schmitz-Salue","opening_hours":"Mo-Th 09:00-11:00, 14:00-16:00; Fr 09:00-13:00; PH off","opening_hours:lastcheck":"2017-07-25","toilets:wheelchair":"yes","wheelchair":"yes"}},
{"type":"Feature","geometry":{"type":"Point","coordinates":[9.2154953,48.4934911]},"properties":{"addr:city":"Reutlingen","addr:country":"DE","addr:housenumber":"11","addr:postcode":"72764","addr:street":"Kaiserpassage","amenity":"doctors","contact:phone":"+49 7121 3743-0","contact:website":"http://www.wpsr.de","description":"Internistische Gemeinschaftspraxis","health_specialty:internal_medicine":"yes","healthcare":"doctor","healthcare:speciality":"nephrology","name":"Gemeinschaftspraxis Dres. Wagner/Puhm/Scholl/Rumpf","wheelchair":"yes","wheelchair:description":"Rollstuhlgerechtes WC vorhanden"}},
{"type":"Feature","geometry":{"type":"Point","coordinates":[9.216864,48.488968]},"properties":{"addr:city":"Reutlingen","addr:housenumber":"3-7","addr:postcode":"72764","addr:street":"Obere Wässere","alt_name":"Radiologische Gemeinschaftspraxis: Friese, Judt-Stelzer, Bongers, Krapf, Neuwirth","amenity":"doctors","contact:email":"kontakt@radiologie-metzingen-reutlingen.de","contact:fax":"+49 7121 9090859","contact:phone":"+49 7121 9090840","contact:website":"http://www.radiologie-metzingen-reutlingen.de","healthcare":"doctor","healthcare:speciality":"radiology","name":"Radiologische Praxis Metzingen-Reutlingen","opening_hours":"Mo-Fr 07:30-18:00; PH off","opening_hours:lastcheck":"2017-07-25","toilets:wheelchair":"yes","wheelchair":"yes"}},
{"type":"Feature","geometry":{"type":"Point","coordinates":[9.2089179,48.4933884]},"properties":{"addr:city":"Reutlingen","addr:country":"DE","addr:housenumber":"3","addr:postcode":"72764","addr:street":"Federnseestraße","amenity":"dentist","healthcare":"dentist","name":"Dr. Thomas Fleischmann","opening_hours":"\"nach Vereinbarung\""}},
{"type":"Feature","geometry":{"type":"Point","coordinates":[9.2075274,48.4903796]},"properties":{"addr:city":"Reutlingen","addr:country":"DE","addr:housenumber":"8","addr:postcode":"72764","addr:street":"Oskar-Kalbfell-Platz","alt_name":"Lungenarzt Reutlingen","amenity":"doctors","contact:email":"praxis@lungenarzt-reutlingen.de","contact:phone":"+49 7121 270022","contact:website":"https://www.lungenarzt-reutlingen.de","healthcare":"doctor","healthcare:speciality":"pulmonology","name":"Dr. med. Weible;Dr. med. Spengler","wheelchair":"yes"}},
{"type":"Feature","geometry":{"type":"Point","coordinates":[9.2166976,48.48857]},"properties":{"addr:city":"Reutlingen","addr:country":"DE","addr:housenumber":"8","addr:postcode":"72764","addr:street":"Obere Wässere","amenity":"doctors","check_date":"2025-03-20","contact:email":"raible@fzow.de","contact:fax":"+49 7121 210503","contact:phone":"+49 7121 210099","healthcare":"doctor","healthcare:speciality":"internal","name":"Dr. med Armin Raible","opening_hours":"Mo-Fr 08:00-12:00"}},
{"type":"Feature","geometry":{"type":"Point","coordinates":[9.2166626,48.4885055]},"properties":{"addr:city":"Reutlingen","addr:country":"DE","addr:housenumber":"8","addr:postcode":"72764","addr:street":"Obere Wässere","amenity":"doctors","check_date":"2025-03-20","contact:email":"praxisblaheta@email.de","contact:fax":"+49 7121 334040","contact:phone":"+49 7121 346880","contact:website":"http://www.hautarzt-reutlingen.de","healthcare":"doctor","healthcare:speciality":"allergology","name":"Dr. med Barbara Blaheta","opening_hours":"Mo-Fr 08:00-12:00; Mo-Th 14:00-18:00","wheelchair":"yes"}},
{"type":"Feature","geometry":{"type":"Point","coordinates":[9.2164373,48.4885668]},"properties":{"addr:city":"Reutlingen","addr:country":"DE","addr:housenumber":"8","addr:postcode":"72764","addr:street":"Obere Wässere","amenity":"doctors","check_date":"2025-03-20","contact:email":"seyfferth@fzow.de","contact:fax":"+49 7121 576277","contact:phone":"+49 7121 55580","contact:website":"http://www.dr-seyfferth.de","healthcare":"doctor","healthcare:speciality":"cardiology","name":"Dr. med Thomas Seyfferth","opening_hours":"Mo-Tu 07:30-12:30, 14:00-16:30; We 07:30-12:30; Th 08:30-12:30, 14:00-16:30; Fr 07:30-14:00","opening_hours:lastcheck":"2016-04-08"}},
{"type":"Feature","geometry":{"type":"Point","coordinates":[9.2166252,48.488441]},"properties":{"addr:city":"Reutlingen","addr:country":"DE","addr:housenumber":"8","addr:postcode":"72764","addr:street":"Obere Wässere","amenity":"doctors","check_date":"2025-03-20","contact:email":"praxisblaheta@email.de","contact:fax":"+49 7121 334040","contact:phone":"+49 7121 346880","contact:website":"http://www.hautarzt-reutlingen.de","healthcare":"doctor","healthcare:speciality":"allergology","name":"Dr. med. Hans-Jürgen Blaheta","opening_hours":"Mo-Fr 08:00-12:00; Mo-Th 14:00-18:00","wheelchair":"yes"}},
{"type":"Feature","geometry":{"type":"Point","coordinates":[9.2163992,48.4885011]},"properties":{"addr:city":"Reutlingen","addr:country":"DE","addr:housenumber":"8","addr:postcode":"72764","addr:street":"Obere Wässere","amenity":"doctors","check_date":"2025-03-20","contact:email":"wurm@fzow.de","contact:fax":"+49 7121 329605","contact:phone":"+49 7121 329680","healthcare":"doctor","healthcare:speciality":"urology","name":"Thomas M. Wurm","opening_hours":"Mo-Fr 08:00-12:00"}},
{"type":"Feature","geometry":{"type":"Point","coordinates":[9.216638,48.4900431]},"properties":{"addr:city":"Reutlingen","addr:housenumber":"2","addr:postcode":"72764","addr:street":"Albstraße","amenity":"doctors","check_date":"2024-03-21","contact:email":"info@urologie-reutlingen.de","contact:fax":"+49 7121 6949899","contact:phone":"+49 7121 694980","contact:website":"http://urologie-reutlingen.de","healthcare":"doctor","healthcare:speciality":"urology","name":"Uroneum Urologische Praxis","toilets:wheelchair":"no","wheelchair":"yes"}},
{"type":"Feature","geometry":{"type":"Point","coordinates":[9.2166037,48.4899975]},"properties":{"addr:city":"Reutlingen","addr:housenumber":"2","addr:postcode":"72764","addr:street":"Albstraße","amenity":"doctors","check_date":"2024-03-21","contact:email":"info@chirurgische-praxis-reutlingen.de","contact:fax":"+49 7121 491281","contact:phone":"+49 7121 491114","contact:website":"https://www.chirurgische-praxis-reutlingen.de/","healthcare":"doctor","healthcare:speciality":"surgery","name":"Chirurgische Gemeinschaftspraxis","toilets:wheelchair":"no","wheelchair":"yes"}},
{"type":"Feature","geometry":{"type":"Point","coordinates":[9.2176162,48.4887252]},"properties":{"addr:city":"Reutlingen","addr:housenumber":"9","addr:postcode":"72764","addr:street":"Obere Wässere","amenity":"doctors","contact:email":"info@praxis-obere-waessere.de","contact:fax":"+49 7121 695 1430","contact:phone":"+49 7121 695 1420","contact:website":"http://www.praxis-obere-waessere.de","healthcare":"doctor","healthcare:speciality":"general","name":"Allgemeinarztpraxis","wheelchair":"yes"}},
{"type":"Feature","geometry":{"type":"Point","coordinates":[9.2089852,48.4934243]},"properties":{"addr:city":"Reutlingen","addr:country":"DE","addr:housenumber":"3","addr:postcode":"72764","addr:street":"Federnseestraße","amenity":"doctors","contact:phone":"+49 7121 329100","healthcare":"doctor","healthcare:speciality":"child_psychiatry","name":"Dr. med. Elisabeth Honold-Luik"}},
{"type":"Feature","geometry":{"type":"Point","coordinates":[9.2090342,48.4933949]},"properties":{"addr:city":"Reutlingen","addr:country":"DE","addr:housenumber":"3","addr:postcode":"72764","addr:street":"Federnseestraße","amenity":"doctors","contact:fax":"+49 7121 380918","contact:phone":"+49 7121 329997","contact:website":"http://www.praxis-jonda-starrach.de","healthcare":"doctor","healthcare:speciality":"child_psychiatry","name":"Rosika Jonda-Starrach"}},
{"type":"Feature","geometry":{"type":"Point","coordinates":[9.2160073,48.4886662]},"properties":{"addr:city":"Reutlingen","addr:housenumber":"4","addr:postcode":"72764","addr:street":"Obere Wässere","amenity":"dentist","check_date":"2025-02-20","contact:email":"info@zahnarzt-rt.de","contact:phone":"+49 7121 371170","contact:website":"http://www.zahnarzt-rt.de","healthcare":"dentist","name":"Dr. med. dent. Lars Vogg"}},
{"type":"Feature","geometry":{"type":"Point","coordinates":[9.2153726,48.4933473]},"properties":{"addr:city":"Reutlingen","addr:housenumber":"9","addr:postcode":"72764","addr:street":"Kaiserpassage","amenity":"doctors","check_date:opening_hours":"2025-02-18","contact:website":"http://www.jugendmedizin-reutlingen.de/","healthcare":"doctor","name":"Dres. med. Dirk Baumgärtel & Andreas von Pfeil","opening_hours":"Mo-Fr 09:00-11:00"}},
{"type":"Feature","geometry":{"type":"Point","coordinates":[9.2156911,48.4939586]},"properties":{"addr:city":"Reutlingen","addr:housenumber":"49","addr:postcode":"72764","addr:street":"Kaiserstraße","amenity":"dentist","healthcare":"dentist","name":"Dr. Sigg","opening_hours":"Mo,Tu,Th 09:00-12:00,14:00-17:00, We,Fr 09:00-12:00, \"Nach Vereinbarung\"","phone":"+49 71 21 34 65 20"}},
{"type":"Feature","geometry":{"type":"Point","coordinates":[9.2088813,48.4953013]},"properties":{"addr:city":"Reutlingen","addr:country":"DE","addr:housenumber":"1","addr:postcode":"72764","addr:street":"Bahnhofstraße","amenity":"doctors","check_date":"2024-08-30","check_date:opening_hours":"2024-08-30","contact:email":"praxis@nierenzentrum-reutlingen.de","contact:fax":"+49 7121 389729","contact:phone":"+49 7121 389720","contact:website":"http://www.nierenzentrum-rt.de","healthcare":"doctor","healthcare:speciality":"dialysis","name":"Nierenzentrum Reutlingen","opening_hours":"Mo-Fr 08:00-12:30","wheelchair":"yes"}},
{"type":"Feature","geometry":{"type":"Point","coordinates":[9.2169164,48.4889033]},"properties":{"addr:city":"Reutlingen","addr:country":"DE","addr:housenumber":"3-7","addr:postcode":"72764","addr:street":"Obere Wässere","amenity":"doctors","contact:email":"info@hno-hellstern.de","contact:fax":"+49 7121 972974","contact:phone":"+49 7121 972972","contact:website":"http://www.hno-hellstern.de","healthcare":"doctor","healthcare:speciality":"otolaryngology","name":"Dr. Chris Hellstern; Dr. Ulrich Hellstern","opening_hours":"Mo-We 08:00-12:00, 14:00-18:00; Th 08:00-12:00; Fr 08:00-12:00, 13:00-15:00; PH off","opening_hours:lastcheck":"2017-07-25"}},
{"type":"Feature","geometry":{"type":"Point","coordinates":[9.2160499,48.4892683]},"properties":{"amenity":"doctors","check_date":"2024-03-21","contact:phone":"+49 7121 493492","contact:website":"http://glunkler.de","description":"Kinder und Jugendarzt","healthcare":"doctor","healthcare:speciality":"paediatrics","name":"Dr. med. B. Glunkler"}},
{"type":"Feature","geometry":{"type":"Point","coordinates":[9.2152025,48.4942525]},"properties":{"amenity":"doctors","check_date":"2025-03-13","contact:phone":"+49 7121 490153","healthcare":"doctor","healthcare:speciality":"gynaecology","name":"Yesim Altin","opening_hours":"Mo,Tu,Th 09:00-12:00, Mo,Th 15:00-17:00, Tu 16:00-19:00; We 09:00-13:00; Fr 09:00-15:00","wheelchair":"no"}},
{"type":"Feature","geometry":{"type":"Point","coordinates":[9.2169741,48.488754]},"properties":{"amenity":"pharmacy","dispensing":"yes","healthcare":"pharmacy","level":"0","name":"Markt Apotheke","opening_hours":"Mo-Fr 08:00-19:00; Sa 09:00-16:00","website":"https://www.markt-apotheke-reutlingen.de/","wheelchair":"yes"}},
{"type":"Feature","geometry":{"type":"Point","coordinates":[9.2159486,48.4915218]},"properties":{"addr:city":"Reutlingen","addr:country":"DE","addr:housenumber":"1","addr:postcode":"72764","addr:street":"Planie","amenity":"dentist","healthcare":"dentist","name":"Dr. Heinz Tochtermann","opening_hours":"\"nach Vereinbarung\"","phone":"+49 7121 32 96 48","website":"https://www.ihr-zahnarzt-reutlingen.de"}},
{"type":"Feature","geometry":{"type":"Point","coordinates":[9.2080799,48.4895553]},"properties":{"amenity":"doctors","check_date":"2024-09-21","healthcare":"doctor","healthcare:speciality":"plastic_surgery","name":"Schwaben Aesthetic","website":"https://schwaben-aesthetic.de/"}},
{"type":"Feature","geometry":{"type":"Point","coordinates":[9.2109121,48.4958905]},"properties":{"addr:city":"Reutlingen","addr:country":"DE","addr:housenumber":"4","addr:postcode":"72764","addr:street":"Kaiserstraße","amenity":"doctors","healthcare":"doctor","healthcare:speciality":"radiology","level":"2","name":"Radiologie im Kronprinzenbau","opening_hours":"Mo-Fr 08:00-12:00, Mo,Tu,Th,Fr 15:00-18:00","website":"https://www.radiologie-im-kronprinzenbau.de/","wheelchair":"yes"}},
{"type":"Feature","geometry":{"type":"Point","coordinates":[9.2102641,48.4958157]},"properties":{"addr:city":"Reutlingen","addr:country":"DE","addr:housenumber":"1","addr:postcode":"72764","addr:street":"Listplatz","amenity":"clinic","healthcare":"clinic","healthcare:speciality":"surgery","level":"3","name":"Klinik im Kronprinzenbau","website":"https://www.kronprinzenbau-klinik.de/"}},
{"type":"Feature","geometry":{"type":"Point","coordinates":[9.2099646,48.4942787]},"properties":{"addr:city":"Reutlingen","addr:country":"DE","addr:housenumber":"3","addr:postcode":"72764","addr:street":"Wilhelmstraße","amenity":"dentist","healthcare":"dentist","name":"Dr. Gössel","website":"https://www.familienzahnarzt-reutlingen.de/"}},
{"type":"Feature","geometry":{"type":"Point","coordinates":[9.218603,48.4915791]},"properties":{"addr:city":"Reutlingen","addr:housenumber":"66","addr:postcode":"72764","addr:street":"Kaiserstraße","amenity":"doctors","check_date":"2024-04-18","description":"HNO Gemeinschaftspraxis","email":"praxis@reutlingen-hno.de","healthcare":"doctor","healthcare:speciality":"otolaryngology","name":"Dr. med. Dirk Eizenberger, Christian Ritzmann","opening_hours":"Mo-Th 08:00-11:30,14:00-17:30; We 08:00-11:30,14:00-19:00; Fr 08:00-13:30; Sa,Su,PH off","phone":"+49 7121 320505","website":"https://www.reutlingen-hno.de","wheelchair":"yes"}},
{"type":"Feature","geometry":{"type":"Point","coordinates":[9.210779,48.4939831]},"properties":{"addr:city":"Reutlingen","addr:housenumber":"12","addr:postcode":"72764","addr:street":"Metzgerstraße","alt_name":"Gemeinschaftspraxis Dr. Bursa-Zanetti und Dr. Bochinger","amenity":"doctors","description":"HNO, Chirurgie, Gemeinschaftspraxis Frau Dr. Zeynep Bursa-Zanetti, Herr Dr. Johannes Bochinger","email":"info@hno-reutlingen.de","healthcare":"doctor","healthcare:speciality":"otolaryngology","name":"Dr. Bursa-Zanetti und Dr. Bochinger","opening_hours":"Mo,We 15:00-18:00; Tu 08:30-12:30; Th 08:30-12:30,15:00-18:00; Fr 08:30-13:00; Sa,Su,PH off","phone":"+49 7121 346901","website":"http://www.hno-reutlingen.com"}},
{"type":"Feature","geometry":{"type":"Point","coordinates":[9.2165565,48.4912472]},"properties":{"addr:city":"Reutlingen","addr:country":"DE","addr:housenumber":"49","addr:postcode":"72764","addr:street":"Gartenstraße","amenity":"doctors","check_date:opening_hours":"2022-12-03","healthcare":"doctor","name":"Ulrich Gwinner","opening_hours:signed":"no","phone":"+49 7121 260471","website":"https://www.systemische-therapie-reutlingen.de/"}},
{"type":"Feature","geometry":{"type":"Point","coordinates":[9.2128967,48.4955194]},"properties":{"addr:city":"Reutlingen","addr:country":"DE","addr:housenumber":"21","addr:postcode":"72764","addr:street":"Kaiserstraße","amenity":"doctors","healthcare":"doctor","healthcare:speciality":"orthopaedics","name":"Dr. Rainer Burkhard","opening_hours":"\"nach Vereinbarung\""}},
{"type":"Feature","geometry":{"type":"Point","coordinates":[9.2158395,48.4940299]},"properties":{"addr:city":"Reutlingen","addr:housenumber":"49","addr:postcode":"72764","addr:street":"Kaiserstraße","amenity":"doctors","email":"info@augenzentrum-eckert.de","healthcare":"doctor","healthcare:speciality":"eye_specialist_and_surgeon;eye;ophthalmology","name":"Augenzentrum Eckert: Reutlingen Augenarzt (MVZ)","opening_hours":"Mo-Fr 08:00-18:00","opening_hours:url":"https://augenzentrum-eckert.de/standorte/reutlingen/","operator":"Augenzentrum Eckert","operator:wikidata":"Q129743845","phone":"+49 7121 / 346689","website":"https://augenzentrum-eckert.de/standorte/reutlingen/"}},
{"type":"Feature","geometry":{"type":"Point","coordinates":[9.2078885,48.4956236]},"properties":{"addr:city":"Reutlingen","addr:housenumber":"4","addr:postcode":"72762","addr:street":"Unter den Linden","amenity":"doctors","description":"Digitale Röntgendiagnostik Knochendichtemessung (DXA) Ultraschall - Bewegungsapparat, Säuglingshüfte; Konservative und operative Orthopädie; Neurochirugie; Kinderorthopädie/Skoliosebehandlung; Nachbehandlung nach Implantation von Kunstgelenken; Unfallbe","healthcare":"doctor","healthcare:speciality":"orthopaedics;chiropractic;arthroscopy;surgery;neurosurgery","name":"Orthopädische Praxis","opening_hours":"Mo-Fr 08:00-18:00; Sa 08:00-11:30; Su,PH off","operator":"Dr. med. Michael Kühn;Dr. med. Jens Knak;Ferdinand Heber;Dr. med. Matthias Mutzek;Norbert Schicker;Dr. med. Sabine Hövelborn","phone":"+49 7121 96369 00","website":"https://orthopaedische-praxis-reutlingen.de"}},
{"type":"Feature","geometry":{"type":"Point","coordinates":[9.2111901,48.4945318]},"properties":{"addr:city":"Reutlingen","addr:housenumber":"6","addr:postcode":"72764","addr:street":"Gartenstraße","amenity":"dentist","healthcare":"dentist","healthcare:speciality":"orthodontics","name":"Dr. med. dent. Britta Höller Kieferorthopädische Fachzahnarztpraxis","opening_hours":"\"Nach Vereinbarung\"","operator":"Dr. Höller"}},
{"type":"Feature","geometry":{"type":"Point","coordinates":[9.2101639,48.5032924]},"properties":{"addr:city":"Reutlingen","addr:housenumber":"42","addr:postcode":"72760","addr:street":"Föhrstraße","amenity":"doctors","check_date:opening_hours":"2022-11-08","email":"rezept@praxisrehm.de","healthcare":"doctor","healthcare:speciality":"general;covid19","name":"Hausarztpraxis Dr. med. Kerstin Rehm","opening_hours":"Mo,We,Fr 08:00-11:30,15:00-18:00; Tu,Th 08:00-11:30; Su,PH off"}},
{"type":"Feature","geometry":{"type":"Point","coordinates":[9.2055764,48.4924962]},"properties":{"addr:city":"Reutlingen","addr:housenumber":"9","addr:postcode":"72762","addr:street":"Gustav-Werner-Straße","amenity":"doctors","email":"info@praxis-osterbrink.de","healthcare":"doctor","healthcare:speciality":"internal;covid19","name":"Dr. med. univ. Julia Osterbrink","opening_hours":"Mo,Th 08:30-12:00,14:00-17:00; Tu 08:30-12:00,15:30-19:00; We 09:00-12:00; Fr 08:30-12:00; Su,PH off","phone":"+49 7121 329657","website":"http://www.praxis-osterbrink.de"}},
{"type":"Feature","geometry":{"type":"Point","coordinates":[9.2167037,48.4899762]},"properties":{"addr:city":"Reutlingen","addr:housenumber":"2","addr:postcode":"72764","addr:street":"Albstraße","amenity":"doctors","description":"Homöopathie, Osteopathie und Allgemeinmedizin","email":"rezeption@praxis-dr-mackes.de","healthcare":"doctor","healthcare:speciality":"osteopathy;general;homeopathy;covid19","name":"Dr. med. Peter Mackes","opening_hours":"Mo-Fr 08:00-12:00,14:00-17:00; Su,PH off","phone":"+49 71 21 32 00 04","website":"https://praxis-dr-mackes.de"}},
{"type":"Feature","geometry":{"type":"Point","coordinates":[9.2156729,48.4932698]},"properties":{"addr:city":"Reutlingen","addr:housenumber":"8","addr:postcode":"72764","addr:street":"Kaiserpassage","alt_name":"Dr.-medic Nadine Gläser","amenity":"doctors","healthcare":"doctor","healthcare:speciality":"general;covid19","name":"Dr. med. Eckhard Röhm","opening_hours":"Mo-Fr 08:00-11:00,15:00-18:00; Su,PH off","phone":"+49 7121 334276"}},
{"type":"Feature","geometry":{"type":"Point","coordinates":[9.2153408,48.4886991]},"properties":{"addr:city":"Reutlingen","addr:housenumber":"118-120","addr:postcode":"72764","addr:street":"Lederstraße","amenity":"doctors","healthcare":"doctor","healthcare:speciality":"general;covid19","name":"Praxis Marx und Koll","opening_hours":"Mo-Fr 09:00-11:00,15:00-17:00; Th 09:00-11:00; Su,PH off","phone":"+49 7121 334438"}},
{"type":"Feature","geometry":{"type":"Point","coordinates":[9.2074093,48.4903747]},"properties":{"addr:city":"Reutlingen","addr:housenumber":"8","addr:postcode":"72764","addr:street":"Oskar-Kalbfell-Platz","amenity":"doctors","description":"Praxis für Kinder- und Jugendmedizin","email":"Praxis.eissler-kreisel@web.de","fixme":"exact position within the building ?","healthcare":"doctor","healthcare:speciality":"paediatrics","name":"Dr. med. Birgit Eissler und Dr. med. Kerstin Krüger","opening_hours":"Mo 08:00-13:00,15:00-19:00; Tu 08:20-12:00,13:00-17:00; We 08:00-13:00,15:00-17:00; Th 08:00-12:00,14:30-18:30; Fr 08:30-12:00,13:00-16:30; Su,PH off","phone":"+49 7121 479907","website":"https://kinderaerzte-reutlingen.de"}},
{"type":"Feature","geometry":{"type":"Point","coordinates":[9.2083327,48.4921364]},"properties":{"addr:city":"Reutlingen","addr:housenumber":"8","addr:postcode":"72764","addr:street":"Willy-Brandt-Platz","amenity":"doctors","description":"Allgemeinarztpraxis","email":"info@dr-rinn.de","healthcare":"doctor","healthcare:speciality":"general;covid19","name":"Dr. med. Sebastian Rinn","opening_hours":"Mo,Tu,Th,Fr 07:30-11:30,15:30-19:00; We 07:30-11:30","phone":"+49 7121 371900","website":"http://www.dr-rinn.de"}},
{"type":"Feature","geometry":{"type":"Point","coordinates":[9.2074599,48.4900756]},"properties":{"addr:city":"Reutlingen","addr:housenumber":"10","addr:street":"Oskar-Kalbfell-Platz","amenity":"doctors","healthcare":"doctor","healthcare:speciality":"paediatrics","name":"Gemeinschaftspraxis Dres. med. Wunberg und Dr. med. Luib","phone":"+49 7121 270738","website":"https://www.wunberg-luib-kinderjugendmedizin.de/"}},
{"type":"Feature","geometry":{"type":"Point","coordinates":[9.2041464,48.4911076]},"properties":{"amenity":"dentist","contact:email":"aokzahnzentrumrt@bw.aok.de","contact:fax":"+49 7121 209-202","contact:phone":"+49 7121 209-320","contact:website":"https://www.aok.de/pk/bw/zahnzentren/","healthcare":"dentist","name":"AOK-Zahnzentrum Reutlingen","opening_hours":"Mo-Fr 07:30-11:30; Mo,Th 14:00-17:30; Tu 13:00-16:00"}},
{"type":"Feature","geometry":{"type":"Point","coordinates":[9.2079615,48.4956878]},"properties":{"amenity":"dentist","healthcare":"dentist","name":"Dr. Tom Sauermann M.A.","opening_hours":"\"nach Vereinbarung\"","survey:date":"2022-09-25"}},
{"type":"Feature","geometry":{"type":"Point","coordinates":[9.2072548,48.4951087]},"properties":{"amenity":"doctors","healthcare":"doctor","healthcare:speciality":"oncology","name":"Onkopraxis Reutlingen - Dr. med. Alexander Wacker","survey:date":"2024-03-05","wheelchair":"yes"}},
{"type":"Feature","geometry":{"type":"Point","coordinates":[9.209978,48.4942527]},"properties":{"amenity":"doctors","healthcare":"doctor","name":"Dr. Christoph Roth","survey:date":"2022-10-05"}},
{"type":"Feature","geometry":{"type":"Point","coordinates":[9.2117516,48.4917207]},"properties":{"amenity":"doctors","check_date":"2025-04-18","check_date:opening_hours":"2025-04-18","healthcare":"doctor","name":"Dr. Karin König - Augenärztin","opening_hours":"Mo-Fr 07:30-12:00, Mo,We 14:00-16:00"}},
{"type":"Feature","geometry":{"type":"Point","coordinates":[9.2118734,48.4963644]},"properties":{"amenity":"dentist","healthcare":"dentist","level":"2","name":"Adam Wecker","survey:date":"2022-11-08"}},
{"type":"Feature","geometry":{"type":"Point","coordinates":[9.2101102,48.5032022]},"properties":{"amenity":"dentist","check_date:opening_hours":"2023-01-14","healthcare":"dentist","name":"Dr. Jochen Gutbrod","opening_hours:signed":"no"}},
{"type":"Feature","geometry":{"type":"Point","coordinates":[9.2085815,48.4946664]},"properties":{"amenity":"dentist","contact:phone":"+49 7121 30450","contact:website":"https://www.zmkg.de/fachabteilung/wurzelbehandlung/","healthcare":"dentist","healthcare:speciality":"dental_oral_maxillo_facial_surgery","level":"1","name":"ZMKG Praxisklinik Dr. Dr. Krämer und Kollegen","opening_hours":"Mo-Th 08:00-13:00,14:00-17:00; Fr 08:00-13:00; PH closed"}},
{"type":"Feature","geometry":{"type":"Point","coordinates":[9.2092646,48.4941847]},"properties":{"amenity":"dentist","healthcare":"dentist","name":"Zahnärztliche Tagesklinik","opening_hours":"Mo-Fr 07:00-21:00"}},
{"type":"Feature","geometry":{"type":"Point","coordinates":[9.2087076,48.4945312]},"properties":{"amenity":"doctors","healthcare":"doctor","healthcare:speciality":"gynaecology","name":"Dr. Michael Menton","opening_hours":"Mo-Fr 08:00-12:00,14:00-18:00"}},
{"type":"Feature","geometry":{"type":"Point","coordinates":[9.2086041,48.4946884]},"properties":{"amenity":"dentist","check_date:opening_hours":"2024-12-29","contact:phone":"+49 7121 30450","contact:website":"https://www.zmkg.de/fachabteilung/kieferorthopaedie-reutlingen/","healthcare":"dentist","healthcare:speciality":"orthodontics","name":"ZMKG Praxisklinik Dr. Dr. Krämer und Kollegen","opening_hours":"Mo-Th 08:00-13:00,14:00-17:00; Fr 08:00-13:00; PH closed"}},
{"type":"Feature","geometry":{"type":"Point","coordinates":[9.2086252,48.4946247]},"properties":{"amenity":"dentist","healthcare":"dentist","level":"1","name":"Dr. Nikolas Goedicke","opening_hours":"\"nach Vereinbarung\""}},
{"type":"Feature","geometry":{"type":"Point","coordinates":[9.2052246,48.4953167]},"properties":{"amenity":"dentist","check_date:opening_hours":"2023-11-26","healthcare":"dentist","name":"Dr. Neuscheler & Kollegen","opening_hours":"Mo-Fr 08:00-12:00"}},
{"type":"Feature","geometry":{"type":"Point","coordinates":[9.2068009,48.4960389]},"properties":{"amenity":"dentist","check_date:opening_hours":"2023-02-11","healthcare":"dentist","name":"Dr. Hansjörg Stotz","opening_hours:signed":"no"}},
{"type":"Feature","geometry":{"type":"Point","coordinates":[9.2090809,48.4956532]},"properties":{"amenity":"doctors","healthcare":"doctor","name":"Dr. Ilse Malaeb","opening_hours":"Mo,Th 07:30-12:00,14:30-17:00; Tu,Fr 07:30-12:00; We 07:30-12:00"}},
{"type":"Feature","geometry":{"type":"Point","coordinates":[9.2084754,48.4921563]},"properties":{"amenity":"doctors","healthcare":"doctor","name":"Dr. S. Rinn","opening_hours":"Mo-Fr 07:30-11:30, Mo,Th,Fr 15:30-18:00","wheelchair":"limited"}},
{"type":"Feature","geometry":{"type":"Point","coordinates":[9.2072347,48.4903611]},"properties":{"addr:city":"Reutlingen","addr:housenumber":"8","addr:postcode":"72764","addr:street":"Oskar-Kalbfell-Platz","amenity":"doctors","email":"praxis@hsw-rt.de","healthcare":"doctor","healthcare:speciality":"gastroenterology","name":"Gemeinschaftspraxis Dr. Hofstätter, Dr. Schwaiger und Dr. Wolf","opening_hours":"Mo-Th 08:00-12:00,14:00-17:00; Fr 08:00-12:00,14:00-16:00; Sa,Su,PH off","phone":"+49 7121 49 04 06","website":"https://hsw-rt.de"}},
{"type":"Feature","geometry":{"type":"Point","coordinates":[9.2168726,48.4891692]},"properties":{"addr:city":"Reutlingen","addr:housenumber":"3-7","addr:postcode":"72764","addr:street":"Obere Wässere","amenity":"doctors","healthcare":"doctor","healthcare:speciality":"radiology;mrt_magnetom_avanto;röntgen;mammographie","name":"Radiologie Obere Wässere","opening_hours":"7.30 - 18.00 Uhr","operator":"Radiologische Gemeinschaftspraxis Metzingen-Reutlingen"}},
{"type":"Feature","geometry":{"type":"Point","coordinates":[9.2128093,48.4949813]},"properties":{"amenity":"doctors","healthcare":"doctor","healthcare:speciality":"dermatology","name":"Dr. Glotzbach & Dr. Lomberg","website":"https://hautarztpraxis-reutlingen.de/","wheelchair":"no"}},
{"type":"Feature","geometry":{"type":"Point","coordinates":[9.2085428,48.4946793]},"properties":{"amenity":"dentist","check_date:opening_hours":"2024-12-29","contact:phone":"+49 7121 304515","contact:website":"https://www.kinderzahnarzt-reutlingen.de/","description":"Fachabteilung für Kinder- und Jugendzahnheilkunde","healthcare":"dentist","healthcare:speciality":"paediatric_dentistry","level":"2","max_age":"17","name":"Zahnärzte für Kinder","opening_hours":"Mo-Fr 08:00-13:00,14:00-18:30; Fr 08:00-13:00; PH closed","operator":"ZMKG Praxisklinik Dr. Dr. Krämer & Kollegen"}}
]}
