{
  "type": "FeatureCollection",
  "features": [
    {
      "type": "Feature",
      "properties": {
        "cluster_id": 0,
        "event_count": 22919,
        "center_x": 766.2927590921707,
        "center_y": 634.8162426698769,
        "mean_soc": 0.7482621466487049,
        "total_energy_kwh": 1171.4344444444428
      },
      "geometry": {
        "type": "Polygon",
        "coordinates": [
          [
            [
              816.2927590921707,
              634.8162426698769
            ],
            [
              815.3320231123323,
              644.5707587706834
            ],
            [
              812.4867357177351,
              653.9504142881315
            ],
            [
              807.866239707298,
              662.5947543208571
            ],
            [
              801.6480981514981,
              670.1715817292043
            ],
            [
              794.0712707431509,
              676.3897232850042
            ],
            [
              785.4269307104253,
              681.0102192954413
            ],
            [
              776.0472751929772,
              683.8555066900385
            ],
            [
              766.2927590921707,
              684.8162426698769
            ],
            [
              756.5382429913643,
              683.8555066900385
            ],
            [
              747.1585874739162,
              681.0102192954413
            ],
            [
              738.5142474411906,
              676.3897232850043
            ],
            [
              730.9374200328434,
              670.1715817292043
            ],
            [
              724.7192784770434,
              662.5947543208571
            ],
            [
              720.0987824666064,
              653.9504142881315
            ],
            [
              717.2534950720092,
              644.5707587706834
            ],
            [
              716.2927590921707,
              634.8162426698769
            ],
            [
              717.2534950720092,
              625.0617265690705
            ],
            [
              720.0987824666064,
              615.6820710516224
            ],
            [
              724.7192784770434,
              607.0377310188968
            ],
            [
              730.9374200328433,
              599.4609036105496
            ],
            [
              738.5142474411906,
              593.2427620547497
            ],
            [
              747.1585874739162,
              588.6222660443126
            ],
            [
              756.5382429913643,
              585.7769786497154
            ],
            [
              766.2927590921707,
              584.8162426698769
            ],
            [
              776.0472751929772,
              585.7769786497154
            ],
            [
              785.4269307104253,
              588.6222660443126
            ],
            [
              794.0712707431509,
              593.2427620547496
            ],
            [
              801.6480981514981,
              599.4609036105495
            ],
            [
              807.866239707298,
              607.0377310188968
            ],
            [
              812.4867357177351,
              615.6820710516224
            ],
            [
              815.3320231123323,
              625.0617265690705
            ],
            [
              816.2927590921707,
              634.8162426698769
            ]
          ]
        ]
      }
    },
    {
      "type": "Feature",
      "properties": {
        "cluster_id": 1,
        "event_count": 21435,
        "center_x": 417.62184532671193,
        "center_y": 480.4386020732666,
        "mean_soc": 0.7189891686591244,
        "total_energy_kwh": 1119.0999999999985
      },
      "geometry": {
        "type": "Polygon",
        "coordinates": [
          [
            [
              467.62184532671193,
              480.4386020732666
            ],
            [
              466.66110934687345,
              490.19311817407305
            ],
            [
              463.8158219522763,
              499.5727736915211
            ],
            [
              459.1953259418392,
              508.2171137242467
            ],
            [
              452.9771843860393,
              515.793941132594
            ],
            [
              445.40035697769207,
              522.0120826883939
            ],
            [
              436.7560169449664,
              526.6325786988309
            ],
            [
              427.37636142751836,
              529.4778660934281
            ],
            [
              417.62184532671193,
              530.4386020732666
            ],
            [
              407.8673292259055,
              529.4778660934281
            ],
            [
              398.48767370845746,
              526.6325786988309
            ],
            [
              389.84333367573186,
              522.0120826883939
            ],
            [
              382.26650626738456,
              515.793941132594
            ],
            [
              376.04836471158467,
              508.2171137242467
            ],
            [
              371.4278687011476,
              499.5727736915211
            ],
            [
              368.5825813065504,
              490.19311817407305
            ],
            [
              367.62184532671193,
              480.4386020732666
            ],
            [
              368.5825813065504,
              470.6840859724602
            ],
            [
              371.4278687011476,
              461.30443045501215
            ],
            [
              376.04836471158467,
              452.66009042228654
            ],
            [
              382.26650626738456,
              445.08326301393924
            ],
            [
              389.84333367573186,
              438.86512145813936
            ],
            [
              398.4876737084574,
              434.2446254477023
            ],
            [
              407.8673292259055,
              431.3993380531051
            ],
            [
              417.62184532671193,
              430.4386020732666
            ],
            [
              427.37636142751836,
              431.3993380531051
            ],
            [
              436.7560169449664,
              434.2446254477023
            ],
            [
              445.400356977692,
              438.86512145813936
            ],
            [
              452.9771843860393,
              445.08326301393924
            ],
            [
              459.1953259418392,
              452.66009042228654
            ],
            [
              463.8158219522763,
              461.3044304550121
            ],
            [
              466.66110934687345,
              470.6840859724602
            ],
            [
              467.62184532671193,
              480.4386020732666
            ]
          ]
        ]
      }
    },
    {
      "type": "Feature",
      "properties": {
        "cluster_id": 2,
        "event_count": 8277,
        "center_x": 685.8168184744021,
        "center_y": 282.0517965241044,
        "mean_soc": 0.5972697706294552,
        "total_energy_kwh": 427.97499999999934
      },
      "geometry": {
        "type": "Polygon",
        "coordinates": [
          [
            [
              735.8168184744021,
              282.0517965241044
            ],
            [
              734.8560824945637,
              291.80631262491084
            ],
            [
              732.0107950999665,
              301.1859681423589
            ],
            [
              727.3902990895293,
              309.8303081750845
            ],
            [
              721.1721575337294,
              317.4071355834318
            ],
            [
              713.5953301253822,
              323.6252771392317
            ],
            [
              704.9509900926566,
              328.24577314966876
            ],
            [
              695.5713345752085,
              331.09106054426593
            ],
            [
              685.8168184744021,
              332.0517965241044
            ],
            [
              676.0623023735957,
              331.09106054426593
            ],
            [
              666.6826468561476,
              328.24577314966876
            ],
            [
              658.038306823422,
              323.6252771392317
            ],
            [
              650.4614794150748,
              317.4071355834318
            ],
            [
              644.2433378592748,
              309.8303081750845
            ],
            [
              639.6228418488378,
              301.1859681423589
            ],
            [
              636.7775544542405,
              291.80631262491084
            ],
            [
              635.8168184744021,
              282.0517965241044
            ],
            [
              636.7775544542405,
              272.297280423298
            ],
            [
              639.6228418488378,
              262.91762490584995
            ],
            [
              644.2433378592748,
              254.2732848731243
            ],
            [
              650.4614794150747,
              246.69645746477704
            ],
            [
              658.038306823422,
              240.47831590897715
            ],
            [
              666.6826468561476,
              235.8578198985401
            ],
            [
              676.0623023735957,
              233.0125325039429
            ],
            [
              685.8168184744021,
              232.05179652410442
            ],
            [
              695.5713345752085,
              233.0125325039429
            ],
            [
              704.9509900926566,
              235.85781989854007
            ],
            [
              713.5953301253822,
              240.47831590897715
            ],
            [
              721.1721575337294,
              246.69645746477704
            ],
            [
              727.3902990895293,
              254.2732848731243
            ],
            [
              732.0107950999665,
              262.9176249058499
            ],
            [
              734.8560824945637,
              272.297280423298
            ],
            [
              735.8168184744021,
              282.0517965241044
            ]
          ]
        ]
      }
    },
    {
      "type": "Feature",
      "properties": {
        "cluster_id": 3,
        "event_count": 6656,
        "center_x": 440.55449025247606,
        "center_y": 257.9796714563991,
        "mean_soc": 0.5389602962698652,
        "total_energy_kwh": 345.7472222222217
      },
      "geometry": {
        "type": "Polygon",
        "coordinates": [
          [
            [
              490.55449025247606,
              257.9796714563991
            ],
            [
              489.59375427263757,
              267.73418755720553
            ],
            [
              486.7484668780404,
              277.1138430746536
            ],
            [
              482.1279708676033,
              285.7581831073792
            ],
            [
              475.90982931180343,
              293.3350105157265
            ],
            [
              468.3330019034562,
              299.55315207152637
            ],
            [
              459.6886618707305,
              304.17364808196345
            ],
            [
              450.3090063532825,
              307.0189354765606
            ],
            [
              440.55449025247606,
              307.9796714563991
            ],
            [
              430.79997415166963,
              307.0189354765606
            ],
            [
              421.4203186342216,
              304.17364808196345
            ],
            [
              412.775978601496,
              299.55315207152637
            ],
            [
              405.1991511931487,
              293.3350105157265
            ],
            [
              398.9810096373488,
              285.7581831073792
            ],
            [
              394.3605136269117,
              277.1138430746536
            ],
            [
              391.51522623231455,
              267.73418755720553
            ],
            [
              390.55449025247606,
              257.9796714563991
            ],
            [
              391.51522623231455,
              248.22515535559268
            ],
            [
              394.3605136269117,
              238.84549983814463
            ],
            [
              398.9810096373488,
              230.201159805419
            ],
            [
              405.1991511931487,
              222.62433239707173
            ],
            [
              412.7759786014959,
              216.40619084127184
            ],
            [
              421.42031863422153,
              211.78569483083479
            ],
            [
              430.79997415166963,
              208.9404074362376
            ],
            [
              440.55449025247606,
              207.9796714563991
            ],
            [
              450.3090063532825,
              208.9404074362376
            ],
            [
              459.6886618707306,
              211.78569483083476
            ],
            [
              468.33300190345614,
              216.40619084127184
            ],
            [
              475.90982931180343,
              222.62433239707173
            ],
            [
              482.1279708676033,
              230.201159805419
            ],
            [
              486.7484668780404,
              238.84549983814458
            ],
            [
              489.59375427263757,
              248.22515535559268
            ],
            [
              490.55449025247606,
              257.9796714563991
            ]
          ]
        ]
      }
    },
    {
      "type": "Feature",
      "properties": {
        "cluster_id": 4,
        "event_count": 31,
        "center_x": 811.7823266395156,
        "center_y": 83.06686174958153,
        "mean_soc": 0.48761286872759857,
        "total_energy_kwh": 0.039583333333332006
      },
      "geometry": {
        "type": "Polygon",
        "coordinates": [
          [
            [
              861.7823266395156,
              83.06686174958153
            ],
            [
              860.8215906596772,
              92.82137785038795
            ],
            [
              857.97630326508,
              102.20103336783602
            ],
            [
              853.3558072546429,
              110.84537340056164
            ],
            [
              847.137665698843,
              118.42220080890891
            ],
            [
              839.5608382904958,
              124.6403423647088
            ],
            [
              830.9164982577702,
              129.26083837514588
            ],
            [
              821.5368427403221,
              132.10612576974307
            ],
            [
              811.7823266395156,
              133.06686174958153
            ],
            [
              802.0278105387092,
              132.10612576974307
            ],
            [
              792.6481550212611,
              129.26083837514588
            ],
            [
              784.0038149885355,
              124.6403423647088
            ],
            [
              776.4269875801883,
              118.42220080890891
            ],
            [
              770.2088460243883,
              110.84537340056164
            ],
            [
              765.5883500139513,
              102.20103336783603
            ],
            [
              762.7430626193541,
              92.82137785038796
            ],
            [
              761.7823266395156,
              83.06686174958153
            ],
            [
              762.7430626193541,
              73.31234564877512
            ],
            [
              765.5883500139513,
              63.93269013132705
            ],
            [
              770.2088460243883,
              55.28835009860144
            ],
            [
              776.4269875801882,
              47.711522690254164
            ],
            [
              784.0038149885355,
              41.493381134454275
            ],
            [
              792.6481550212611,
              36.87288512401721
            ],
            [
              802.0278105387092,
              34.027597729420016
            ],
            [
              811.7823266395156,
              33.066861749581534
            ],
            [
              821.5368427403221,
              34.02759772942001
            ],
            [
              830.9164982577702,
              36.8728851240172
            ],
            [
              839.5608382904958,
              41.49338113445426
            ],
            [
              847.137665698843,
              47.71152269025415
            ],
            [
              853.3558072546429,
              55.28835009860143
            ],
            [
              857.97630326508,
              63.932690131327014
            ],
            [
              860.8215906596772,
              73.31234564877509
            ],
            [
              861.7823266395156,
              83.06686174958153
            ]
          ]
        ]
      }
    },
    {
      "type": "Feature",
      "properties": {
        "cluster_id": 5,
        "event_count": 20,
        "center_x": 168.4416274564099,
        "center_y": 455.72669227805466,
        "mean_soc": 0.6147492062500001,
        "total_energy_kwh": 0.023749999999999202
      },
      "geometry": {
        "type": "Polygon",
        "coordinates": [
          [
            [
              218.4416274564099,
              455.72669227805466
            ],
            [
              217.4808914765714,
              465.4812083788611
            ],
            [
              214.63560408197424,
              474.8608638963091
            ],
            [
              210.01510807153716,
              483.5052039290348
            ],
            [
              203.79696651573727,
              491.08203133738203
            ],
            [
              196.22013910739,
              497.3001728931819
            ],
            [
              187.5757990746644,
              501.920668903619
            ],
            [
              178.19614355721632,
              504.76595629821617
            ],
            [
              168.4416274564099,
              505.72669227805466
            ],
            [
              158.6871113556035,
              504.76595629821617
            ],
            [
              149.3074558381554,
              501.920668903619
            ],
            [
              140.66311580542978,
              497.3001728931819
            ],
            [
              133.0862883970825,
              491.08203133738203
            ],
            [
              126.86814684128262,
              483.5052039290348
            ],
            [
              122.24765083084554,
              474.8608638963091
            ],
            [
              119.40236343624836,
              465.4812083788611
            ],
            [
              118.44162745640989,
              455.72669227805466
            ],
            [
              119.40236343624836,
              445.97217617724823
            ],
            [
              122.24765083084554,
              436.5925206598002
            ],
            [
              126.86814684128262,
              427.9481806270746
            ],
            [
              133.0862883970825,
              420.3713532187273
            ],
            [
              140.66311580542978,
              414.1532116629274
            ],
            [
              149.30745583815536,
              409.5327156524903
            ],
            [
              158.68711135560346,
              406.68742825789315
            ],
            [
              168.4416274564099,
              405.72669227805466
            ],
            [
              178.19614355721632,
              406.68742825789315
            ],
            [
              187.5757990746644,
              409.5327156524903
            ],
            [
              196.22013910738997,
              414.1532116629274
            ],
            [
              203.79696651573727,
              420.3713532187273
            ],
            [
              210.01510807153716,
              427.9481806270745
            ],
            [
              214.6356040819742,
              436.59252065980013
            ],
            [
              217.4808914765714,
              445.97217617724823
            ],
            [
              218.4416274564099,
              455.72669227805466
            ]
          ]
        ]
      }
    },
    {
      "type": "Feature",
      "properties": {
        "cluster_id": 6,
        "event_count": 13,
        "center_x": 713.0862047904192,
        "center_y": 123.73590419161677,
        "mean_soc": 0.4035156442307692,
        "total_energy_kwh": 0.04749999999999931
      },
      "geometry": {
        "type": "Polygon",
        "coordinates": [
          [
            [
              763.0862047904192,
              123.73590419161677
            ],
            [
              762.1254688105807,
              133.49042029242318
            ],
            [
              759.2801814159835,
              142.87007580987125
            ],
            [
              754.6596854055464,
              151.51441584259686
            ],
            [
              748.4415438497465,
              159.09124325094416
            ],
            [
              740.8647164413993,
              165.30938480674402
            ],
            [
              732.2203764086737,
              169.9298808171811
            ],
            [
              722.8407208912256,
              172.7751682117783
            ],
            [
              713.0862047904192,
              173.73590419161678
            ],
            [
              703.3316886896127,
              172.7751682117783
            ],
            [
              693.9520331721646,
              169.9298808171811
            ],
            [
              685.307693139439,
              165.30938480674405
            ],
            [
              677.7308657310919,
              159.09124325094416
            ],
            [
              671.5127241752919,
              151.51441584259686
            ],
            [
              666.8922281648548,
              142.87007580987125
            ],
            [
              664.0469407702576,
              133.4904202924232
            ],
            [
              663.0862047904192,
              123.73590419161677
            ],
            [
              664.0469407702576,
              113.98138809081036
            ],
            [
              666.8922281648548,
              104.60173257336228
            ],
            [
              671.5127241752919,
              95.95739254063668
            ],
            [
              677.7308657310917,
              88.3805651322894
            ],
            [
              685.307693139439,
              82.16242357648952
            ],
            [
              693.9520331721646,
              77.54192756605244
            ],
            [
              703.3316886896127,
              74.69664017145524
            ],
            [
              713.0862047904192,
              73.73590419161677
            ],
            [
              722.8407208912256,
              74.69664017145524
            ],
            [
              732.2203764086737,
              77.54192756605244
            ],
            [
              740.8647164413993,
              82.16242357648949
            ],
            [
              748.4415438497465,
              88.38056513228938
            ],
            [
              754.6596854055464,
              95.95739254063666
            ],
            [
              759.2801814159835,
              104.60173257336226
            ],
            [
              762.1254688105807,
              113.98138809081033
            ],
            [
              763.0862047904192,
              123.73590419161677
            ]
          ]
        ]
      }
    },
    {
      "type": "Feature",
      "properties": {
        "cluster_id": 7,
        "event_count": 7,
        "center_x": 481.0914452997291,
        "center_y": 341.3383412046133,
        "mean_soc": 0.40181867857142856,
        "total_energy_kwh": 0.023749999999999598
      },
      "geometry": {
        "type": "Polygon",
        "coordinates": [
          [
            [
              531.0914452997291,
              341.3383412046133
            ],
            [
              530.1307093198907,
              351.0928573054197
            ],
            [
              527.2854219252935,
              360.47251282286777
            ],
            [
              522.6649259148563,
              369.1168528555934
            ],
            [
              516.4467843590564,
              376.6936802639407
            ],
            [
              508.86995695070925,
              382.91182181974057
            ],
            [
              500.2256169179836,
              387.53231783017765
            ],
            [
              490.84596140053554,
              390.3776052247748
            ],
            [
              481.0914452997291,
              391.3383412046133
            ],
            [
              471.3369291989227,
              390.3776052247748
            ],
            [
              461.95727368147465,
              387.53231783017765
            ],
            [
              453.31293364874904,
              382.91182181974057
            ],
            [
              445.73610624040174,
              376.6936802639407
            ],
            [
              439.51796468460185,
              369.1168528555934
            ],
            [
              434.89746867416477,
              360.47251282286777
            ],
            [
              432.0521812795676,
              351.0928573054197
            ],
            [
              431.0914452997291,
              341.3383412046133
            ],
            [
              432.0521812795676,
              331.5838251038069
            ],
            [
              434.89746867416477,
              322.20416958635883
            ],
            [
              439.51796468460185,
              313.5598295536332
            ],
            [
              445.73610624040174,
              305.9830021452859
            ],
            [
              453.312933648749,
              299.76486058948603
            ],
            [
              461.9572736814746,
              295.14436457904895
            ],
            [
              471.3369291989227,
              292.2990771844518
            ],
            [
              481.0914452997291,
              291.3383412046133
            ],
            [
              490.84596140053554,
              292.2990771844518
            ],
            [
              500.22561691798364,
              295.14436457904895
            ],
            [
              508.8699569507092,
              299.76486058948603
            ],
            [
              516.4467843590564,
              305.9830021452859
            ],
            [
              522.6649259148563,
              313.5598295536332
            ],
            [
              527.2854219252935,
              322.2041695863588
            ],
            [
              530.1307093198907,
              331.5838251038069
            ],
            [
              531.0914452997291,
              341.3383412046133
            ]
          ]
        ]
      }
    },
    {
      "type": "Feature",
      "properties": {
        "cluster_id": 8,
        "event_count": 6,
        "center_x": 382.2024723454599,
        "center_y": 376.1091106181603,
        "mean_soc": 0.4681448171296297,
        "total_energy_kwh": 0.018472222222221897
      },
      "geometry": {
        "type": "Polygon",
        "coordinates": [
          [
            [
              432.2024723454599,
              376.1091106181603
            ],
            [
              431.2417363656214,
              385.8636267189667
            ],
            [
              428.39644897102426,
              395.24328223641476
            ],
            [
              423.7759529605872,
              403.88762226914037
            ],
            [
              417.5578114047873,
              411.46444967748766
            ],
            [
              409.98098399644005,
              417.68259123328755
            ],
            [
              401.3366439637144,
              422.30308724372463
            ],
            [
              391.95698844626634,
              425.1483746383218
            ],
            [
              382.2024723454599,
              426.1091106181603
            ],
            [
              372.4479562446535,
              425.1483746383218
            ],
            [
              363.06830072720544,
              422.30308724372463
            ],
            [
              354.42396069447983,
              417.68259123328755
            ],
            [
              346.84713328613253,
              411.46444967748766
            ],
            [
              340.62899173033264,
              403.88762226914037
            ],
            [
              336.00849571989556,
              395.24328223641476
            ],
            [
              333.1632083252984,
              385.8636267189667
            ],
            [
              332.2024723454599,
              376.1091106181603
            ],
            [
              333.1632083252984,
              366.35459451735386
            ],
            [
              336.00849571989556,
              356.9749389999058
            ],
            [
              340.62899173033264,
              348.3305989671802
            ],
            [
              346.84713328613253,
              340.7537715588329
            ],
            [
              354.4239606944798,
              334.535630003033
            ],
            [
              363.0683007272054,
              329.91513399259594
            ],
            [
              372.4479562446535,
              327.0698465979988
            ],
            [
              382.2024723454599,
              326.1091106181603
            ],
            [
              391.95698844626634,
              327.0698465979988
            ],
            [
              401.33664396371444,
              329.91513399259594
            ],
            [
              409.98098399644,
              334.535630003033
            ],
            [
              417.5578114047873,
              340.7537715588329
            ],
            [
              423.7759529605872,
              348.3305989671802
            ],
            [
              428.39644897102426,
              356.97493899990576
            ],
            [
              431.2417363656214,
              366.35459451735386
            ],
            [
              432.2024723454599,
              376.1091106181603
            ]
          ]
        ]
      }
    },
    {
      "type": "Feature",
      "properties": {
        "cluster_id": 9,
        "event_count": 3,
        "center_x": 676.3991327891933,
        "center_y": 348.56492035174665,
        "mean_soc": 0.44624806944444445,
        "total_energy_kwh": 0.007916666666666499
      },
      "geometry": {
        "type": "Polygon",
        "coordinates": [
          [
            [
              726.3991327891933,
              348.56492035174665
            ],
            [
              725.4383968093549,
              358.3194364525531
            ],
            [
              722.5931094147577,
              367.6990919700011
            ],
            [
              717.9726134043206,
              376.3434320027268
            ],
            [
              711.7544718485208,
              383.920259411074
            ],
            [
              704.1776444401735,
              390.1384009668739
            ],
            [
              695.5333044074479,
              394.758896977311
            ],
            [
              686.1536488899998,
              397.60418437190816
            ],
            [
              676.3991327891933,
              398.56492035174665
            ],
            [
              666.6446166883869,
              397.60418437190816
            ],
            [
              657.2649611709388,
              394.758896977311
            ],
            [
              648.6206211382132,
              390.1384009668739
            ],
            [
              641.043793729866,
              383.920259411074
            ],
            [
              634.8256521740661,
              376.3434320027268
            ],
            [
              630.205156163629,
              367.6990919700011
            ],
            [
              627.3598687690318,
              358.3194364525531
            ],
            [
              626.3991327891933,
              348.56492035174665
            ],
            [
              627.3598687690318,
              338.8104042509402
            ],
            [
              630.205156163629,
              329.4307487334922
            ],
            [
              634.825652174066,
              320.7864087007666
            ],
            [
              641.0437937298659,
              313.2095812924193
            ],
            [
              648.6206211382132,
              306.9914397366194
            ],
            [
              657.2649611709388,
              302.3709437261823
            ],
            [
              666.6446166883869,
              299.52565633158514
            ],
            [
              676.3991327891933,
              298.56492035174665
            ],
            [
              686.1536488899998,
              299.52565633158514
            ],
            [
              695.5333044074479,
              302.3709437261823
            ],
            [
              704.1776444401735,
              306.9914397366194
            ],
            [
              711.7544718485207,
              313.2095812924193
            ],
            [
              717.9726134043206,
              320.7864087007665
            ],
            [
              722.5931094147577,
              329.4307487334921
            ],
            [
              725.4383968093549,
              338.8104042509402
            ],
            [
              726.3991327891933,
              348.56492035174665
            ]
          ]
        ]
      }
    }
  ]
}