{
  "type": "FeatureCollection",
  "features": [
    {
      "type": "Feature",
      "properties": {
        "cluster_id": 1,
        "count_low_soc": 33,
        "mean_soc": 26.64867234848485,
        "estimated_chargers": 6
      },
      "geometry": {
        "type": "Polygon",
        "coordinates": [
          [
            [
              1264.8644335004144,
              671.9254545454546
            ],
            [
              1263.466221265021,
              686.1217416094449
            ],
            [
              1259.32531707092,
              699.7724733229358
            ],
            [
              1252.6008535440449,
              712.3530597215959
            ],
            [
              1243.5512480466114,
              723.3800359253992
            ],
            [
              1232.524271842808,
              732.4296414228328
            ],
            [
              1219.9436854441478,
              739.1541049497077
            ],
            [
              1206.2929537306572,
              743.2950091438087
            ],
            [
              1192.0966666666668,
              744.6932213792022
            ],
            [
              1177.9003796026764,
              743.2950091438087
            ],
            [
              1164.2496478891858,
              739.1541049497077
            ],
            [
              1151.6690614905256,
              732.4296414228328
            ],
            [
              1140.6420852867222,
              723.3800359253992
            ],
            [
              1131.5924797892887,
              712.3530597215959
            ],
            [
              1124.8680162624137,
              699.7724733229358
            ],
            [
              1120.7271120683126,
              686.121741609445
            ],
            [
              1119.3288998329192,
              671.9254545454546
            ],
            [
              1120.7271120683126,
              657.7291674814643
            ],
            [
              1124.8680162624137,
              644.0784357679736
            ],
            [
              1131.5924797892887,
              631.4978493693134
            ],
            [
              1140.6420852867222,
              620.4708731655102
            ],
            [
              1151.6690614905256,
              611.4212676680764
            ],
            [
              1164.2496478891858,
              604.6968041412016
            ],
            [
              1177.9003796026764,
              600.5558999471006
            ],
            [
              1192.0966666666668,
              599.157687711707
            ],
            [
              1206.2929537306572,
              600.5558999471006
            ],
            [
              1219.9436854441478,
              604.6968041412015
            ],
            [
              1232.524271842808,
              611.4212676680764
            ],
            [
              1243.5512480466114,
              620.47087316551
            ],
            [
              1252.6008535440449,
              631.4978493693134
            ],
            [
              1259.32531707092,
              644.0784357679735
            ],
            [
              1263.466221265021,
              657.7291674814642
            ],
            [
              1264.8644335004144,
              671.9254545454546
            ]
          ]
        ]
      }
    },
    {
      "type": "Feature",
      "properties": {
        "cluster_id": 5,
        "count_low_soc": 23,
        "mean_soc": 28.538603260869564,
        "estimated_chargers": 5
      },
      "geometry": {
        "type": "Polygon",
        "coordinates": [
          [
            [
              747.3795490366729,
              24.490869565217395
            ],
            [
              746.7128570571543,
              31.259906829321512
            ],
            [
              744.7384017174865,
              37.76881378748594
            ],
            [
              741.5320602290852,
              43.7674567955455
            ],
            [
              737.217050497213,
              49.02531136677821
            ],
            [
              731.9591959259803,
              53.340321098650406
            ],
            [
              725.9605529179207,
              56.5466625870516
            ],
            [
              719.4516459597563,
              58.52111792671953
            ],
            [
              712.6826086956522,
              59.18780990623809
            ],
            [
              705.9135714315481,
              58.52111792671953
            ],
            [
              699.4046644733837,
              56.5466625870516
            ],
            [
              693.4060214653241,
              53.34032109865041
            ],
            [
              688.1481668940914,
              49.02531136677821
            ],
            [
              683.8331571622192,
              43.7674567955455
            ],
            [
              680.626815673818,
              37.768813787485946
            ],
            [
              678.6523603341501,
              31.259906829321523
            ],
            [
              677.9856683546316,
              24.490869565217398
            ],
            [
              678.6523603341501,
              17.721832301113274
            ],
            [
              680.626815673818,
              11.212925342948852
            ],
            [
              683.8331571622192,
              5.214282334889301
            ],
            [
              688.1481668940914,
              -0.04357223634341523
            ],
            [
              693.4060214653241,
              -4.358581968215621
            ],
            [
              699.4046644733836,
              -7.564923456616803
            ],
            [
              705.9135714315481,
              -9.539378796284737
            ],
            [
              712.6826086956522,
              -10.206070775803298
            ],
            [
              719.4516459597563,
              -9.539378796284744
            ],
            [
              725.9605529179207,
              -7.564923456616803
            ],
            [
              731.9591959259803,
              -4.358581968215631
            ],
            [
              737.217050497213,
              -0.04357223634342233
            ],
            [
              741.5320602290852,
              5.214282334889294
            ],
            [
              744.7384017174865,
              11.212925342948827
            ],
            [
              746.7128570571543,
              17.72183230111326
            ],
            [
              747.3795490366729,
              24.490869565217395
            ]
          ]
        ]
      }
    },
    {
      "type": "Feature",
      "properties": {
        "cluster_id": 2,
        "count_low_soc": 13,
        "mean_soc": 26.99762884615385,
        "estimated_chargers": 3
      },
      "geometry": {
        "type": "Polygon",
        "coordinates": [
          [
            [
              1284.9115861601915,
              529.1707692307692
            ],
            [
              1283.7495085635696,
              540.9695410728933
            ],
            [
              1280.3079337640418,
              552.314892729952
            ],
            [
              1274.7191195510964,
              562.7708287003111
            ],
            [
              1267.1978409206938,
              571.9355332283862
            ],
            [
              1258.0331363926189,
              579.4568118587888
            ],
            [
              1247.5772004222597,
              585.0456260717342
            ],
            [
              1236.231848765201,
              588.487200871262
            ],
            [
              1224.433076923077,
              589.6492784678837
            ],
            [
              1212.6343050809528,
              588.487200871262
            ],
            [
              1201.288953423894,
              585.0456260717342
            ],
            [
              1190.833017453535,
              579.4568118587888
            ],
            [
              1181.66831292546,
              571.9355332283862
            ],
            [
              1174.1470342950574,
              562.7708287003111
            ],
            [
              1168.558220082112,
              552.314892729952
            ],
            [
              1165.1166452825842,
              540.9695410728933
            ],
            [
              1163.9545676859623,
              529.1707692307692
            ],
            [
              1165.1166452825842,
              517.3719973886451
            ],
            [
              1168.558220082112,
              506.0266457315864
            ],
            [
              1174.1470342950574,
              495.57070976122736
            ],
            [
              1181.66831292546,
              486.40600523315226
            ],
            [
              1190.833017453535,
              478.88472660274965
            ],
            [
              1201.288953423894,
              473.2959123898043
            ],
            [
              1212.6343050809528,
              469.8543375902765
            ],
            [
              1224.433076923077,
              468.69225999365466
            ],
            [
              1236.231848765201,
              469.85433759027643
            ],
            [
              1247.5772004222597,
              473.2959123898043
            ],
            [
              1258.0331363926189,
              478.88472660274965
            ],
            [
              1267.1978409206938,
              486.40600523315226
            ],
            [
              1274.7191195510964,
              495.5707097612273
            ],
            [
              1280.3079337640418,
              506.0266457315864
            ],
            [
              1283.7495085635696,
              517.3719973886451
            ],
            [
              1284.9115861601915,
              529.1707692307692
            ]
          ]
        ]
      }
    },
    {
      "type": "Feature",
      "properties": {
        "cluster_id": 10,
        "count_low_soc": 12,
        "mean_soc": 28.715584375000002,
        "estimated_chargers": 3
      },
      "geometry": {
        "type": "Polygon",
        "coordinates": [
          [
            [
              813.9060893922691,
              653.99
            ],
            [
              813.1591762969094,
              661.5735359219238
            ],
            [
              810.9471404622111,
              668.865640811264
            ],
            [
              807.3549891847779,
              675.5860831665829
            ],
            [
              802.5207668236997,
              681.4766001570329
            ],
            [
              796.6302498332496,
              686.3108225181111
            ],
            [
              789.9098074779308,
              689.9029737955443
            ],
            [
              782.6177025885906,
              692.1150096302426
            ],
            [
              775.0341666666668,
              692.8619227256023
            ],
            [
              767.450630744743,
              692.1150096302426
            ],
            [
              760.1585258554028,
              689.9029737955443
            ],
            [
              753.438083500084,
              686.3108225181111
            ],
            [
              747.547566509634,
              681.4766001570329
            ],
            [
              742.7133441485557,
              675.5860831665829
            ],
            [
              739.1211928711225,
              668.865640811264
            ],
            [
              736.9091570364242,
              661.5735359219238
            ],
            [
              736.1622439410645,
              653.99
            ],
            [
              736.9091570364242,
              646.4064640780762
            ],
            [
              739.1211928711225,
              639.114359188736
            ],
            [
              742.7133441485557,
              632.3939168334172
            ],
            [
              747.547566509634,
              626.5033998429672
            ],
            [
              753.438083500084,
              621.6691774818889
            ],
            [
              760.1585258554028,
              618.0770262044557
            ],
            [
              767.450630744743,
              615.8649903697574
            ],
            [
              775.0341666666668,
              615.1180772743977
            ],
            [
              782.6177025885906,
              615.8649903697574
            ],
            [
              789.9098074779308,
              618.0770262044557
            ],
            [
              796.6302498332496,
              621.6691774818889
            ],
            [
              802.5207668236997,
              626.5033998429672
            ],
            [
              807.3549891847779,
              632.3939168334172
            ],
            [
              810.9471404622111,
              639.114359188736
            ],
            [
              813.1591762969094,
              646.4064640780762
            ],
            [
              813.9060893922691,
              653.99
            ]
          ]
        ]
      }
    },
    {
      "type": "Feature",
      "properties": {
        "cluster_id": 6,
        "count_low_soc": 6,
        "mean_soc": 28.49569166666667,
        "estimated_chargers": 2
      },
      "geometry": {
        "type": "Polygon",
        "coordinates": [
          [
            [
              840.48,
              28.84
            ],
            [
              839.9996320100807,
              33.7172580504032
            ],
            [
              838.5769883127822,
              38.407085809127246
            ],
            [
              836.2667403075636,
              42.72925582549006
            ],
            [
              833.1576695296637,
              46.51766952966369
            ],
            [
              829.3692558254901,
              49.62674030756363
            ],
            [
              825.0470858091272,
              51.93698831278217
            ],
            [
              820.3572580504032,
              53.35963201008076
            ],
            [
              815.48,
              53.84
            ],
            [
              810.6027419495969,
              53.35963201008076
            ],
            [
              805.9129141908728,
              51.93698831278217
            ],
            [
              801.59074417451,
              49.62674030756364
            ],
            [
              797.8023304703363,
              46.51766952966369
            ],
            [
              794.6932596924364,
              42.72925582549006
            ],
            [
              792.3830116872178,
              38.407085809127246
            ],
            [
              790.9603679899193,
              33.71725805040322
            ],
            [
              790.48,
              28.840000000000003
            ],
            [
              790.9603679899193,
              23.96274194959679
            ],
            [
              792.3830116872178,
              19.272914190872758
            ],
            [
              794.6932596924364,
              14.950744174509952
            ],
            [
              797.8023304703363,
              11.162330470336315
            ],
            [
              801.59074417451,
              8.05325969243637
            ],
            [
              805.9129141908728,
              5.743011687217837
            ],
            [
              810.6027419495967,
              4.320367989919241
            ],
            [
              815.48,
              3.84
            ],
            [
              820.3572580504032,
              4.320367989919237
            ],
            [
              825.0470858091272,
              5.743011687217834
            ],
            [
              829.3692558254901,
              8.053259692436363
            ],
            [
              833.1576695296637,
              11.162330470336308
            ],
            [
              836.2667403075636,
              14.950744174509946
            ],
            [
              838.5769883127822,
              19.27291419087274
            ],
            [
              839.9996320100807,
              23.962741949596783
            ],
            [
              840.48,
              28.84
            ]
          ]
        ]
      }
    },
    {
      "type": "Feature",
      "properties": {
        "cluster_id": 8,
        "count_low_soc": 5,
        "mean_soc": 28.562437499999998,
        "estimated_chargers": 1
      },
      "geometry": {
        "type": "Polygon",
        "coordinates": [
          [
            [
              950.9608352675638,
              602.858
            ],
            [
              950.4773384436378,
              607.7670256351878
            ],
            [
              949.0454284836553,
              612.4874001682285
            ],
            [
              946.720132884354,
              616.8377222530343
            ],
            [
              943.5908114515744,
              620.6508114515743
            ],
            [
              939.7777222530343,
              623.780132884354
            ],
            [
              935.4274001682287,
              626.1054284836553
            ],
            [
              930.7070256351878,
              627.5373384436377
            ],
            [
              925.798,
              628.0208352675637
            ],
            [
              920.8889743648122,
              627.5373384436377
            ],
            [
              916.1685998317714,
              626.1054284836553
            ],
            [
              911.8182777469657,
              623.780132884354
            ],
            [
              908.0051885484256,
              620.6508114515743
            ],
            [
              904.875867115646,
              616.8377222530343
            ],
            [
              902.5505715163447,
              612.4874001682286
            ],
            [
              901.1186615563622,
              607.7670256351878
            ],
            [
              900.6351647324362,
              602.858
            ],
            [
              901.1186615563622,
              597.9489743648121
            ],
            [
              902.5505715163447,
              593.2285998317714
            ],
            [
              904.875867115646,
              588.8782777469656
            ],
            [
              908.0051885484256,
              585.0651885484256
            ],
            [
              911.8182777469657,
              581.9358671156459
            ],
            [
              916.1685998317713,
              579.6105715163446
            ],
            [
              920.8889743648122,
              578.1786615563622
            ],
            [
              925.798,
              577.6951647324362
            ],
            [
              930.7070256351878,
              578.1786615563622
            ],
            [
              935.4274001682287,
              579.6105715163446
            ],
            [
              939.7777222530343,
              581.9358671156459
            ],
            [
              943.5908114515744,
              585.0651885484256
            ],
            [
              946.720132884354,
              588.8782777469656
            ],
            [
              949.0454284836553,
              593.2285998317712
            ],
            [
              950.4773384436378,
              597.9489743648121
            ],
            [
              950.9608352675638,
              602.858
            ]
          ]
        ]
      }
    },
    {
      "type": "Feature",
      "properties": {
        "cluster_id": 3,
        "count_low_soc": 4,
        "mean_soc": 29.17476875,
        "estimated_chargers": 1
      },
      "geometry": {
        "type": "Polygon",
        "coordinates": [
          [
            [
              709.2673875754488,
              355.37
            ],
            [
              708.7255346430261,
              360.8715251479129
            ],
            [
              707.1207989500765,
              366.1616297696824
            ],
            [
              704.5148495893338,
              371.0370181114187
            ],
            [
              701.0078317332981,
              375.31033173329814
            ],
            [
              696.7345181114187,
              378.8173495893338
            ],
            [
              691.8591297696825,
              381.4232989500765
            ],
            [
              686.569025147913,
              383.02803464302616
            ],
            [
              681.0675,
              383.56988757544883
            ],
            [
              675.565974852087,
              383.02803464302616
            ],
            [
              670.2758702303175,
              381.4232989500765
            ],
            [
              665.4004818885813,
              378.8173495893338
            ],
            [
              661.1271682667019,
              375.31033173329814
            ],
            [
              657.6201504106662,
              371.0370181114187
            ],
            [
              655.0142010499235,
              366.1616297696824
            ],
            [
              653.4094653569739,
              360.87152514791296
            ],
            [
              652.8676124245512,
              355.37
            ],
            [
              653.4094653569739,
              349.8684748520871
            ],
            [
              655.0142010499235,
              344.5783702303176
            ],
            [
              657.6201504106662,
              339.70298188858135
            ],
            [
              661.1271682667018,
              335.42966826670187
            ],
            [
              665.4004818885813,
              331.9226504106662
            ],
            [
              670.2758702303175,
              329.3167010499235
            ],
            [
              675.565974852087,
              327.71196535697385
            ],
            [
              681.0675,
              327.1701124245512
            ],
            [
              686.569025147913,
              327.71196535697385
            ],
            [
              691.8591297696825,
              329.3167010499235
            ],
            [
              696.7345181114187,
              331.9226504106662
            ],
            [
              701.0078317332981,
              335.42966826670187
            ],
            [
              704.5148495893338,
              339.7029818885813
            ],
            [
              707.1207989500765,
              344.5783702303176
            ],
            [
              708.7255346430261,
              349.86847485208705
            ],
            [
              709.2673875754488,
              355.37
            ]
          ]
        ]
      }
    },
    {
      "type": "Feature",
      "properties": {
        "cluster_id": 7,
        "count_low_soc": 4,
        "mean_soc": 27.974375000000002,
        "estimated_chargers": 1
      },
      "geometry": {
        "type": "Polygon",
        "coordinates": [
          [
            [
              285.741746123912,
              264.94
            ],
            [
              284.8479398905869,
              274.01496698045645
            ],
            [
              282.20086966290603,
              282.7411880691541
            ],
            [
              277.902260865225,
              290.7833194833754
            ],
            [
              272.1173066229512,
              297.8323066229512
            ],
            [
              265.0683194833755,
              303.617260865225
            ],
            [
              257.02618806915416,
              307.91586966290595
            ],
            [
              248.2999669804565,
              310.56293989058685
            ],
            [
              239.22500000000002,
              311.45674612391196
            ],
            [
              230.15003301954357,
              310.56293989058685
            ],
            [
              221.42381193084591,
              307.91586966290595
            ],
            [
              213.3816805166246,
              303.617260865225
            ],
            [
              206.33269337704883,
              297.8323066229512
            ],
            [
              200.54773913477504,
              290.7833194833754
            ],
            [
              196.24913033709404,
              282.74118806915413
            ],
            [
              193.60206010941317,
              274.0149669804565
            ],
            [
              192.70825387608807,
              264.94
            ],
            [
              193.60206010941317,
              255.86503301954352
            ],
            [
              196.24913033709404,
              247.1388119308459
            ],
            [
              200.54773913477504,
              239.0966805166246
            ],
            [
              206.33269337704883,
              232.0476933770488
            ],
            [
              213.38168051662458,
              226.26273913477502
            ],
            [
              221.4238119308459,
              221.96413033709405
            ],
            [
              230.15003301954354,
              219.31706010941315
            ],
            [
              239.22500000000002,
              218.42325387608804
            ],
            [
              248.2999669804565,
              219.31706010941315
            ],
            [
              257.02618806915416,
              221.96413033709402
            ],
            [
              265.06831948337543,
              226.26273913477502
            ],
            [
              272.1173066229512,
              232.0476933770488
            ],
            [
              277.902260865225,
              239.09668051662456
            ],
            [
              282.200869662906,
              247.13881193084586
            ],
            [
              284.8479398905869,
              255.86503301954352
            ],
            [
              285.741746123912,
              264.94
            ]
          ]
        ]
      }
    },
    {
      "type": "Feature",
      "properties": {
        "cluster_id": 0,
        "count_low_soc": 3,
        "mean_soc": 26.965895833333335,
        "estimated_chargers": 1
      },
      "geometry": {
        "type": "Polygon",
        "coordinates": [
          [
            [
              1102.1348660078897,
              685.6533333333333
            ],
            [
              1101.515353998178,
              691.943344325106
            ],
            [
              1099.6806254681499,
              697.9916337219437
            ],
            [
              1096.7011880062864,
              703.5657691542456
            ],
            [
              1092.6915397233597,
              708.4515397233596
            ],
            [
              1087.8057691542458,
              712.4611880062864
            ],
            [
              1082.2316337219438,
              715.4406254681496
            ],
            [
              1076.1833443251062,
              717.2753539981778
            ],
            [
              1069.8933333333334,
              717.8948660078895
            ],
            [
              1063.6033223415607,
              717.2753539981778
            ],
            [
              1057.555032944723,
              715.4406254681496
            ],
            [
              1051.980897512421,
              712.4611880062864
            ],
            [
              1047.0951269433072,
              708.4515397233596
            ],
            [
              1043.0854786603804,
              703.5657691542456
            ],
            [
              1040.106041198517,
              697.9916337219437
            ],
            [
              1038.271312668489,
              691.943344325106
            ],
            [
              1037.6518006587771,
              685.6533333333333
            ],
            [
              1038.271312668489,
              679.3633223415607
            ],
            [
              1040.106041198517,
              673.3150329447229
            ],
            [
              1043.0854786603804,
              667.740897512421
            ],
            [
              1047.0951269433072,
              662.855126943307
            ],
            [
              1051.980897512421,
              658.8454786603802
            ],
            [
              1057.555032944723,
              655.866041198517
            ],
            [
              1063.6033223415607,
              654.0313126684888
            ],
            [
              1069.8933333333334,
              653.4118006587771
            ],
            [
              1076.1833443251062,
              654.0313126684888
            ],
            [
              1082.2316337219438,
              655.866041198517
            ],
            [
              1087.8057691542458,
              658.8454786603802
            ],
            [
              1092.6915397233597,
              662.8551269433069
            ],
            [
              1096.7011880062864,
              667.740897512421
            ],
            [
              1099.6806254681499,
              673.3150329447229
            ],
            [
              1101.515353998178,
              679.3633223415605
            ],
            [
              1102.1348660078897,
              685.6533333333333
            ]
          ]
        ]
      }
    },
    {
      "type": "Feature",
      "properties": {
        "cluster_id": 4,
        "count_low_soc": 3,
        "mean_soc": 29.043825000000002,
        "estimated_chargers": 1
      },
      "geometry": {
        "type": "Polygon",
        "coordinates": [
          [
            [
              726.7155053386958,
              141.72
            ],
            [
              726.1517037312526,
              147.44437378517878
            ],
            [
              724.4819654885134,
              152.94876309605894
            ],
            [
              721.7704577147466,
              158.02163733832046
            ],
            [
              718.1213821330672,
              162.46804879973388
            ],
            [
              713.6749706716538,
              166.1171243814133
            ],
            [
              708.6020964293923,
              168.82863215518003
            ],
            [
              703.0977071185122,
              170.49837039791925
            ],
            [
              697.3733333333333,
              171.06217200536247
            ],
            [
              691.6489595481546,
              170.49837039791925
            ],
            [
              686.1445702372744,
              168.82863215518003
            ],
            [
              681.0716959950129,
              166.1171243814133
            ],
            [
              676.6252845335995,
              162.46804879973388
            ],
            [
              672.9762089519201,
              158.02163733832046
            ],
            [
              670.2647011781532,
              152.94876309605897
            ],
            [
              668.5949629354141,
              147.44437378517878
            ],
            [
              668.0311613279708,
              141.72
            ],
            [
              668.5949629354141,
              135.99562621482121
            ],
            [
              670.2647011781532,
              130.49123690394106
            ],
            [
              672.9762089519201,
              125.41836266167954
            ],
            [
              676.6252845335995,
              120.97195120026613
            ],
            [
              681.0716959950129,
              117.32287561858668
            ],
            [
              686.1445702372744,
              114.61136784481997
            ],
            [
              691.6489595481545,
              112.94162960208077
            ],
            [
              697.3733333333333,
              112.37782799463754
            ],
            [
              703.0977071185122,
              112.94162960208077
            ],
            [
              708.6020964293923,
              114.61136784481997
            ],
            [
              713.6749706716538,
              117.32287561858668
            ],
            [
              718.1213821330672,
              120.97195120026612
            ],
            [
              721.7704577147466,
              125.41836266167954
            ],
            [
              724.4819654885133,
              130.49123690394103
            ],
            [
              726.1517037312526,
              135.9956262148212
            ],
            [
              726.7155053386958,
              141.72
            ]
          ]
        ]
      }
    },
    {
      "type": "Feature",
      "properties": {
        "cluster_id": 9,
        "count_low_soc": 3,
        "mean_soc": 29.428483333333332,
        "estimated_chargers": 1
      },
      "geometry": {
        "type": "Polygon",
        "coordinates": [
          [
            [
              726.4228876351026,
              601.49
            ],
            [
              725.8611218471249,
              607.1937037632669
            ],
            [
              724.1974128273819,
              612.6782173895853
            ],
            [
              721.4956959804836,
              617.7327740960466
            ],
            [
              717.859796769716,
              622.1631301030494
            ],
            [
              713.4294407627132,
              625.799029313817
            ],
            [
              708.3748840562519,
              628.5007461607153
            ],
            [
              702.8903704299335,
              630.1644551804583
            ],
            [
              697.1866666666666,
              630.726220968436
            ],
            [
              691.4829629033998,
              630.1644551804583
            ],
            [
              685.9984492770814,
              628.5007461607153
            ],
            [
              680.94389257062,
              625.799029313817
            ],
            [
              676.5135365636172,
              622.1631301030494
            ],
            [
              672.8776373528497,
              617.7327740960466
            ],
            [
              670.1759205059514,
              612.6782173895853
            ],
            [
              668.5122114862083,
              607.1937037632669
            ],
            [
              667.9504456982306,
              601.49
            ],
            [
              668.5122114862083,
              595.7862962367332
            ],
            [
              670.1759205059514,
              590.3017826104148
            ],
            [
              672.8776373528497,
              585.2472259039534
            ],
            [
              676.5135365636172,
              580.8168698969506
            ],
            [
              680.94389257062,
              577.1809706861831
            ],
            [
              685.9984492770814,
              574.4792538392848
            ],
            [
              691.4829629033998,
              572.8155448195417
            ],
            [
              697.1866666666666,
              572.253779031564
            ],
            [
              702.8903704299335,
              572.8155448195417
            ],
            [
              708.3748840562519,
              574.4792538392848
            ],
            [
              713.4294407627132,
              577.1809706861831
            ],
            [
              717.859796769716,
              580.8168698969506
            ],
            [
              721.4956959804836,
              585.2472259039534
            ],
            [
              724.1974128273819,
              590.3017826104148
            ],
            [
              725.8611218471249,
              595.7862962367332
            ],
            [
              726.4228876351026,
              601.49
            ]
          ]
        ]
      }
    }
  ]
}